{"type":"FeatureCollection","features":[{"type":"Feature","properties":{"ubigeo_distrito":"030606","distrito":"ONGOY","provincia":"CHINCHEROS","departamento":"APURIMAC","territorio":"VRAEM"},"geometry":{"type":"Polygon","coordinates":[[[-73.52003,-13.4196657],[-73.5214435,-13.4237327],[-73.5257802,-13.4276333],[-73.5297875,-13.4284419],[-73.5575091,-13.4310107],[-73.5617555,-13.4319678],[-73.5680047,-13.4370562],[-73.5715699,-13.4424595],[-73.593842,-13.4805979],[-73.5973479,-13.4860261],[-73.6031234,-13.4913133],[-73.6068369,-13.492494],[-73.6307689,-13.4966528],[-73.6348383,-13.496942],[-73.643462,-13.4950963],[-73.6501722,-13.4925002],[-73.6952298,-13.4735764],[-73.7016837,-13.4708158],[-73.7082577,-13.4676547],[-73.7100211,-13.4664638],[-73.7175551,-13.4600985],[-73.7185164,-13.4588263],[-73.7186728,-13.4550146],[-73.717907,-13.451522],[-73.7116244,-13.4273933],[-73.710292,-13.4235852],[-73.7059157,-13.4172494],[-73.7017776,-13.4131376],[-73.6730497,-13.3865795],[-73.6681104,-13.3824338],[-73.6573235,-13.375827],[-73.6487793,-13.3717141],[-73.5912126,-13.3454176],[-73.5824781,-13.3421692],[-73.57113029191547,-13.342454328681258],[-73.51475830001016,-13.398011917231733],[-73.52003,-13.4196657]]]}},{"type":"Feature","properties":{"ubigeo_distrito":"050403","distrito":"HUAMANGUILLA","provincia":"HUANTA","departamento":"AYACUCHO","territorio":"VRAEM"},"geometry":{"type":"Polygon","coordinates":[[[-74.1443334,-12.9286939],[-74.1432414,-12.9275512],[-74.1420129,-12.9262656],[-74.1332773,-12.9171239],[-74.1320488,-12.9158383],[-74.1309569,-12.9146956],[-74.1308204,-12.9145527],[-74.1305521,-12.9152278],[-74.128406,-12.9206287],[-74.1259917,-12.9267046],[-74.1088231,-12.9699113],[-74.1070025,-12.9765839],[-74.1096058,-12.9867573],[-74.11320467482618,-12.991043795578431],[-74.15964827184737,-13.036329471217208],[-74.16231928478493,-13.03701957892983],[-74.18767172680508,-13.027908809995342],[-74.2073307,-13.0167395],[-74.211618,-13.013644],[-74.2115987,-13.0083773],[-74.2072874,-13.0048894],[-74.1728162,-12.9822532],[-74.1677821,-12.9785995],[-74.1619811,-12.9720059],[-74.1597639,-12.9674177],[-74.1478271,-12.9373057],[-74.1461485,-12.9330712],[-74.1446564,-12.9293072],[-74.1444699,-12.9288367],[-74.1443334,-12.9286939]]]}},{"type":"Feature","properties":{"ubigeo_distrito":"050405","distrito":"LURICOCHA","provincia":"HUANTA","departamento":"AYACUCHO","territorio":"VRAEM"},"geometry":{"type":"Polygon","coordinates":[[[-74.2116697,-12.8214092],[-74.2132398,-12.827543],[-74.2150062,-12.8344434],[-74.2275669,-12.8835135],[-74.2299823,-12.8908021],[-74.2367445,-12.9000408],[-74.242782,-12.9043006],[-74.2843194,-12.9291403],[-74.2901605,-12.9326334],[-74.2953527,-12.9357384],[-74.2960017,-12.9361265],[-74.2962362,-12.935638],[-74.2981121,-12.9317303],[-74.3002224,-12.9273341],[-74.3152293,-12.8960724],[-74.3173813,-12.8911285],[-74.3195908,-12.8828391],[-74.32020054519275,-12.877421886928984],[-74.32286940351784,-12.842368320870179],[-74.3229325,-12.8373618],[-74.3207685,-12.8323602],[-74.3180004,-12.831115],[-74.2980196,-12.826155],[-74.29801951269117,-12.826154962945463],[-74.29239998371506,-12.824759980576315],[-74.29215300002814,-12.819608055231855],[-74.2914712,-12.8154558],[-74.2881688,-12.7823742],[-74.2877044,-12.7777221],[-74.2872916,-12.7735869],[-74.28724,-12.77307],[-74.2864823,-12.7735457],[-74.280421,-12.7773515],[-74.273602,-12.781633],[-74.2251115,-12.8120794],[-74.2182925,-12.816361],[-74.2122311,-12.8201668],[-74.2114735,-12.8206425],[-74.2116697,-12.8214092]]]}},{"type":"Feature","properties":{"ubigeo_distrito":"050501","distrito":"SAN MIGUEL","provincia":"LA MAR","departamento":"AYACUCHO","territorio":"AMUVRAEM"},"geometry":{"type":"Polygon","coordinates":[[[-73.8849375,-12.876388],[-73.8737966,-12.8759616],[-73.8612631,-12.8754818],[-73.7721358,-12.8720698],[-73.7592848,-12.8714187],[-73.7456043,-12.8696212],[-73.7413547,-12.8680255],[-73.7210382,-12.8570574],[-73.7176475,-12.8548821],[-73.7108379,-12.8484482],[-73.7057167,-12.8425809],[-73.6715567,-12.8020773],[-73.6666048,-12.7959049],[-73.6611489,-12.7870298],[-73.6592811,-12.7821082],[-73.6497946,-12.7516107],[-73.6484605,-12.7473219],[-73.6472747,-12.7435098],[-73.6471265,-12.7430332],[-73.6465422,-12.7439335],[-73.6418678,-12.7511353],[-73.636609,-12.7592374],[-73.6105437995903,-12.799395887886044],[-73.59429660301,-12.836355677630216],[-73.5956746,-12.8371675],[-73.6204865,-12.8517852],[-73.6242502,-12.8544985],[-73.6295476,-12.8615872],[-73.6324057,-12.8677347],[-73.6499732,-12.9098259],[-73.6532326,-12.9159939],[-73.6617398,-12.9232464],[-73.6691144,-12.9261441],[-73.7196044,-12.9420728],[-73.7275022,-12.9442187],[-73.7401948,-12.9454574],[-73.7481626,-12.9448598],[-73.7992129,-12.9388404],[-73.806799,-12.9382106],[-73.8164376,-12.9391918],[-73.8208997,-12.941048],[-73.8469585,-12.9549166],[-73.850426,-12.9572704],[-73.8521073,-12.9622329],[-73.8507416,-12.966082],[-73.8381338,-12.9919128],[-73.8365618,-12.9962163],[-73.8365935,-13.0048131],[-73.8382051,-13.0112557],[-73.8510664,-13.0541994],[-73.8526908,-13.0606895],[-73.8528254,-13.0696667],[-73.8513691,-13.0743981],[-73.839584,-13.1032719],[-73.8380962,-13.1075601],[-73.8379789,-13.1129919],[-73.83932,-13.1154936],[-73.8501663,-13.1300748],[-73.8523321,-13.1319389],[-73.8588116,-13.1322711],[-73.8647453,-13.1308222],[-73.9057352,-13.1188985],[-73.9120156,-13.1177956],[-73.9212687,-13.1208962],[-73.9265547,-13.1258748],[-73.9595899,-13.1626028],[-73.964321,-13.1677694],[-73.9691355,-13.1723737],[-73.9704223,-13.1729626],[-73.97065597538604,-13.172967136806575],[-74.00312529314108,-13.1320380428099],[-74.0498394,-13.0573484],[-74.0579022,-13.0441721],[-74.0659009,-13.0291041],[-74.0678363,-13.0234452],[-74.0753216,-12.9932426],[-74.0756824,-12.9890443],[-74.0710837,-12.9856605],[-74.0649744,-12.9856292],[-74.0206988,-12.9887618],[-74.0142122,-12.9888963],[-74.0065942,-12.9868394],[-74.0035584,-12.9841338],[-73.98689,-12.9645458],[-73.9840128,-12.9616694],[-73.9776634,-12.9582459],[-73.9726039,-12.956843],[-73.9384775,-12.9490432],[-73.933253,-12.9472423],[-73.9255833,-12.9406346],[-73.9212206,-12.934176],[-73.893989,-12.8891148],[-73.8901596,-12.8827781],[-73.8867556,-12.8771454],[-73.8863301,-12.8764414],[-73.8849375,-12.876388]]]}},{"type":"Feature","properties":{"ubigeo_distrito":"050401","distrito":"HUANTA","provincia":"HUANTA","departamento":"AYACUCHO","territorio":"VRAEM"},"geometry":{"type":"Polygon","coordinates":[[[-74.2953527,-12.9357384],[-74.2901605,-12.9326334],[-74.2843194,-12.9291403],[-74.242782,-12.9043006],[-74.2367445,-12.9000408],[-74.2299823,-12.8908021],[-74.2275669,-12.8835135],[-74.2150062,-12.8344434],[-74.2132398,-12.827543],[-74.2116697,-12.8214092],[-74.2114735,-12.8206425],[-74.2108536,-12.820893],[-74.2058945,-12.8228969],[-74.2003154,-12.8251513],[-74.1606424,-12.8411825],[-74.1549557,-12.8429122],[-74.1491354,-12.8407189],[-74.1475466,-12.8362476],[-74.1406566,-12.8026702],[-74.1401548,-12.7970953],[-74.1430301,-12.7860731],[-74.147126,-12.7778703],[-74.1770182,-12.7232702],[-74.1808497,-12.7153379],[-74.1816095,-12.7064797],[-74.1787278,-12.7033394],[-74.1549144,-12.6870745],[-74.1515656,-12.6847872],[-74.1485889,-12.6827541],[-74.1482169,-12.6825],[-74.1478572,-12.6821898],[-74.1449801,-12.6797081],[-74.1417434,-12.6769161],[-74.1187267,-12.6570625],[-74.1149342,-12.6545613],[-74.1076112,-12.6544056],[-74.1022498,-12.6567123],[-74.066682,-12.6753208],[-74.0613047,-12.6785151],[-74.053854,-12.6854607],[-74.0499179,-12.6909485],[-74.0258798,-12.7279049],[-74.0220473,-12.7331321],[-74.015425,-12.7379937],[-74.0109797,-12.7388434],[-73.9820397,-12.7407797],[-73.9781962,-12.7413803],[-73.9763881,-12.7442494],[-73.97710736134675,-12.745605612376465],[-73.98808785843156,-12.74986910550655],[-73.98927085695912,-12.763640573448013],[-73.9924465,-12.7682513],[-73.9944731,-12.7718429],[-73.9962104,-12.7795593],[-73.9963556,-12.7856132],[-73.9957794,-12.8263284],[-73.9967134,-12.8323419],[-74.0047612,-12.8397351],[-74.0138871,-12.8429631],[-74.02306967095396,-12.845568415910673],[-74.09784479235802,-12.86543102353243],[-74.0996676,-12.8657215],[-74.1042493,-12.8654419],[-74.1296133,-12.8614057],[-74.1331208,-12.8613809],[-74.1358172,-12.8652189],[-74.1356801,-12.8700413],[-74.13510290130489,-12.8753279409141],[-74.14423648357706,-12.877754105625659],[-74.13112841666093,-12.911730821257624],[-74.1308796,-12.9140099],[-74.1308204,-12.9145527],[-74.1309569,-12.9146956],[-74.1320488,-12.9158383],[-74.1332773,-12.9171239],[-74.1420129,-12.9262656],[-74.1432414,-12.9275512],[-74.1443334,-12.9286939],[-74.1444699,-12.9288367],[-74.145066,-12.9292256],[-74.1498349,-12.9323366],[-74.1552,-12.9358365],[-74.1933518,-12.9607248],[-74.1996032,-12.9643714],[-74.2114629,-12.9686557],[-74.2200361,-12.9703646],[-74.2767619,-12.9797512],[-74.2847718,-12.9806086],[-74.28816880823213,-12.979440832225036],[-74.29579618931557,-12.939020582636886],[-74.2959689,-12.9365891],[-74.2960017,-12.9361265],[-74.2953527,-12.9357384]]]}},{"type":"Feature","properties":{"ubigeo_distrito":"050507","distrito":"SANTA ROSA","provincia":"LA MAR","departamento":"AYACUCHO","territorio":"AMUVRAEM"},"geometry":{"type":"Polygon","coordinates":[[[-73.6472747,-12.7435098],[-73.6484605,-12.7473219],[-73.6497946,-12.7516107],[-73.6592811,-12.7821082],[-73.6611489,-12.7870298],[-73.6666048,-12.7959049],[-73.6715567,-12.8020773],[-73.7057167,-12.8425809],[-73.7108379,-12.8484482],[-73.7176475,-12.8548821],[-73.7210382,-12.8570574],[-73.7413547,-12.8680255],[-73.7456043,-12.8696212],[-73.7592848,-12.8714187],[-73.7721358,-12.8720698],[-73.8612631,-12.8754818],[-73.8737966,-12.8759616],[-73.8849375,-12.876388],[-73.8863301,-12.8764414],[-73.88647,-12.8762797],[-73.8875895,-12.8749868],[-73.8888489,-12.8735323],[-73.8978048,-12.863189],[-73.898949,-12.8610495],[-73.8991471,-12.8542764],[-73.8982504,-12.8479496],[-73.890879,-12.804108],[-73.8894612,-12.7974311],[-73.8854908,-12.7878575],[-73.8819455,-12.7825673],[-73.8575536,-12.7498196],[-73.8540084,-12.7447278],[-73.8500386,-12.7367411],[-73.8486216,-12.7318495],[-73.8412552,-12.7007033],[-73.8394648,-12.6959268],[-73.8325082,-12.6888603],[-73.8256029,-12.6848038],[-73.7773167,-12.6594183],[-73.7705265,-12.6558484],[-73.7644907,-12.6526753],[-73.7637362,-12.6522786],[-73.7633525,-12.6521628],[-73.760283,-12.651236],[-73.75705561760367,-12.65026157949542],[-73.7482899832081,-12.657660230420674],[-73.72815912630993,-12.642760449972885],[-73.7280378,-12.6427599],[-73.718709,-12.6500202],[-73.7112837,-12.6591149],[-73.6612098,-12.7246121],[-73.6541681,-12.7338227],[-73.6479089,-12.7420098],[-73.6471265,-12.7430332],[-73.6472747,-12.7435098]]]}},{"type":"Feature","properties":{"ubigeo_distrito":"050406","distrito":"SANTILLANA","provincia":"HUANTA","departamento":"AYACUCHO","territorio":"AMUVRAEM"},"geometry":{"type":"Polygon","coordinates":[[[-74.33071999745863,-12.68594986873034],[-74.32752998374778,-12.681269980442671],[-74.3407856622994,-12.634580867350017],[-74.3415406,-12.6307284],[-74.34165,-12.63017],[-74.341263,-12.6302873],[-74.3381675,-12.6312263],[-74.334685,-12.6322826],[-74.3099204,-12.6397942],[-74.3057714,-12.6408187],[-74.2973438,-12.6415034],[-74.2909584,-12.6413347],[-74.2483028,-12.6393003],[-74.2422303,-12.6385254],[-74.2363064,-12.6343607],[-74.2349739,-12.6299298],[-74.230238,-12.598647],[-74.229208,-12.5937166],[-74.2257041,-12.5855562],[-74.2223543,-12.5802861],[-74.1990593,-12.5462857],[-74.1957835,-12.5415044],[-74.1928716,-12.5372544],[-74.1925076,-12.5367231],[-74.1920124,-12.5371467],[-74.1880503,-12.5405351],[-74.1835931,-12.544347],[-74.151897,-12.5714542],[-74.1474397,-12.5752662],[-74.1434777,-12.5786546],[-74.1429825,-12.5790781],[-74.1432379,-12.5797217],[-74.1452815,-12.5848706],[-74.1475806,-12.5906632],[-74.1639293,-12.6318544],[-74.1660252,-12.6380376],[-74.166444,-12.6463113],[-74.1648715,-12.6504704],[-74.1518727,-12.6754691],[-74.1500448,-12.6789845],[-74.14842,-12.6821094],[-74.1482169,-12.6825],[-74.1485889,-12.6827541],[-74.1515656,-12.6847872],[-74.1549144,-12.6870745],[-74.1787278,-12.7033394],[-74.1816095,-12.7064797],[-74.1808497,-12.7153379],[-74.1770182,-12.7232702],[-74.147126,-12.7778703],[-74.1430301,-12.7860731],[-74.1401548,-12.7970953],[-74.1406566,-12.8026702],[-74.1475466,-12.8362476],[-74.1491354,-12.8407189],[-74.1549557,-12.8429122],[-74.1606424,-12.8411825],[-74.2003154,-12.8251513],[-74.2058945,-12.8228969],[-74.2108536,-12.820893],[-74.2114735,-12.8206425],[-74.2122311,-12.8201668],[-74.2182925,-12.816361],[-74.2251115,-12.8120794],[-74.273602,-12.781633],[-74.280421,-12.7773515],[-74.2864823,-12.7735457],[-74.28724,-12.77307],[-74.2875415,-12.7727171],[-74.28977947166666,-12.770097737066846],[-74.28919998371208,-12.758009980514156],[-74.31644738287541,-12.737161626412014],[-74.3182897,-12.7334718],[-74.3197895,-12.7284604],[-74.3283106,-12.6953328],[-74.3295088,-12.6906743],[-74.330574,-12.6865333],[-74.3307071,-12.6860157],[-74.33071999745863,-12.68594986873034]]]}},{"type":"Feature","properties":{"ubigeo_distrito":"090509","distrito":"SAN PEDRO DE CORIS","provincia":"CHURCAMPA","departamento":"HUANCAVELICA","territorio":"VRAEM"},"geometry":{"type":"Polygon","coordinates":[[[-74.4572734,-12.5800206],[-74.4544283,-12.5792471],[-74.4512277,-12.578377],[-74.4284676,-12.5721895],[-74.4250458,-12.570851],[-74.4204315,-12.5663304],[-74.4180854,-12.5620182],[-74.4039309,-12.532041],[-74.4019405,-12.5278255],[-74.4001711,-12.5240784],[-74.39995,-12.52361],[-74.3997858,-12.5240822],[-74.3984722,-12.5278598],[-74.3969944,-12.5321096],[-74.3864856,-12.5623304],[-74.384589,-12.5671736],[-74.379925,-12.5756984],[-74.3759916,-12.5815112],[-74.3491884,-12.6194888],[-74.34682572406675,-12.622836488392531],[-74.34081998376016,-12.63445998039909],[-74.3407856622994,-12.634580867350017],[-74.3406651,-12.6351961],[-74.3396803,-12.6402222],[-74.3326768,-12.6759635],[-74.331692,-12.6809896],[-74.3308165,-12.6854573],[-74.33071999745863,-12.68594986873034],[-74.33075747980666,-12.686004856958427],[-74.331444,-12.6858571],[-74.3373389,-12.684588],[-74.3439706,-12.6831602],[-74.3911298,-12.6730074],[-74.3979307,-12.6711328],[-74.4051781,-12.6662894],[-74.4074366,-12.6621096],[-74.4182568,-12.6335149],[-74.42012,-12.6294217],[-74.4242052,-12.6252715],[-74.4274486,-12.6241768],[-74.4493104,-12.6195693],[-74.4524064,-12.6185398],[-74.4553127,-12.6149114],[-74.4558496,-12.6114054],[-74.4572384,-12.5869854],[-74.4574337,-12.5835513],[-74.4576073,-12.5804988],[-74.457629,-12.5801172],[-74.4572734,-12.5800206]]]}},{"type":"Feature","properties":{"ubigeo_distrito":"090510","distrito":"PACHAMARCA","provincia":"CHURCAMPA","departamento":"HUANCAVELICA","territorio":"VRAEM"},"geometry":{"type":"Polygon","coordinates":[[[-74.5320358,-12.5079942],[-74.5300255,-12.5031512],[-74.5277639,-12.4977028],[-74.5116815,-12.4589588],[-74.5094199,-12.4535104],[-74.5074096,-12.4486674],[-74.5071584,-12.448062],[-74.5063113,-12.4480335],[-74.5046417659066,-12.447977279762995],[-74.50353998391172,-12.449809980227132],[-74.43486001131586,-12.445913965010194],[-74.4298487,-12.4462507],[-74.42131194867648,-12.452266419241784],[-74.41511998382937,-12.490659980265168],[-74.40226760366839,-12.515534438773214],[-74.401975,-12.516554],[-74.400175,-12.522826],[-74.39995,-12.52361],[-74.4001711,-12.5240784],[-74.4019405,-12.5278255],[-74.4039309,-12.532041],[-74.4180854,-12.5620182],[-74.4204315,-12.5663304],[-74.4250458,-12.570851],[-74.4284676,-12.5721895],[-74.4512277,-12.578377],[-74.4544283,-12.5792471],[-74.4572734,-12.5800206],[-74.457629,-12.5801172],[-74.4580651,-12.5798368],[-74.4615536,-12.5775935],[-74.4654783,-12.5750699],[-74.4933868,-12.5571236],[-74.497622,-12.5541652],[-74.5035946,-12.5484437],[-74.5068253,-12.5442504],[-74.5266979,-12.5164254],[-74.5294925,-12.5125125],[-74.5319766,-12.5090344],[-74.5322871,-12.5085996],[-74.5320358,-12.5079942]]]}},{"type":"Feature","properties":{"ubigeo_distrito":"080907","distrito":"KIMBIRI","provincia":"LA CONVENCION","departamento":"CUSCO","territorio":"AMUVRAEM"},"geometry":{"type":"Polygon","coordinates":[[[-73.7322734,-12.6427791],[-73.7568298,-12.6501934],[-73.75705561760367,-12.65026157949542],[-73.7981820396225,-12.615548742227686],[-73.8011531,-12.6100188],[-73.8018819,-12.6062284],[-73.8044025,-12.5820652],[-73.8042487,-12.5784129],[-73.8004981,-12.573357],[-73.7959637,-12.5706896],[-73.7634387,-12.5544061],[-73.7585794,-12.5513219],[-73.7522305,-12.5429319],[-73.7491536,-12.5355286],[-73.7308876,-12.4846919],[-73.7275062,-12.4765595],[-73.7187217,-12.4623372],[-73.7111223,-12.4526917],[-73.6591118,-12.3897497],[-73.6517978,-12.3808984],[-73.6452965,-12.3730307],[-73.6444839,-12.3720472],[-73.6440766,-12.3721966],[-73.6408187,-12.3733917],[-73.64018524502882,-12.373624075708374],[-73.63715048310446,-12.378367980160583],[-73.62801280186353,-12.378089309520485],[-73.6110905,-12.3842969],[-73.6074254,-12.3856414],[-73.6041675,-12.3868365],[-73.6037602,-12.3869859],[-73.6033327,-12.3875214],[-73.5999123,-12.3918061],[-73.5960644,-12.3966263],[-73.5687015,-12.4309033],[-73.5654949,-12.4366898],[-73.5672051,-12.4487049],[-73.5725493,-12.4579373],[-73.6135933,-12.519781],[-73.6189757,-12.5285407],[-73.6209913,-12.5367745],[-73.6181283,-12.538307],[-73.593209,-12.5423331],[-73.5898242,-12.5434261],[-73.5876649,-12.5481437],[-73.5883506,-12.5529478],[-73.5959953,-12.5866627],[-73.5966767,-12.5921871],[-73.5944833,-12.6026679],[-73.5910602,-12.6102444],[-73.5672493441719,-12.657627735610106],[-73.6085040553,-12.6718872989],[-73.6288324738,-12.6978851],[-73.6658114254,-12.7104864125],[-73.66894812514798,-12.711032913208733],[-73.72536698318672,-12.640693855404892],[-73.72815912630993,-12.642760449972885],[-73.7322734,-12.6427791]]]}},{"type":"Feature","properties":{"ubigeo_distrito":"090503","distrito":"CHINCHIHUASI","provincia":"CHURCAMPA","departamento":"HUANCAVELICA","territorio":"VRAEM"},"geometry":{"type":"Polygon","coordinates":[[[-74.5074096,-12.4486674],[-74.5094199,-12.4535104],[-74.5116815,-12.4589588],[-74.5277639,-12.4977028],[-74.5300255,-12.5031512],[-74.5320358,-12.5079942],[-74.5322871,-12.5085996],[-74.532961,-12.5089252],[-74.5383517,-12.5115302],[-74.5444163,-12.5144609],[-74.5875424,-12.5353009],[-74.5939968,-12.5377463],[-74.6025056,-12.5364699],[-74.6066873,-12.5324289],[-74.6316318,-12.5013774],[-74.6347265,-12.4967453],[-74.6345394,-12.4907399],[-74.6312108,-12.4878653],[-74.6047691,-12.4708735],[-74.60281041128947,-12.469319632237866],[-74.59733235899907,-12.466094605242283],[-74.59732563177906,-12.456000805352753],[-74.5973256,-12.4560004],[-74.5973017,-12.4201098],[-74.5970853,-12.4146943],[-74.5953779,-12.4072603],[-74.59346016971145,-12.403383540924123],[-74.57982481004196,-12.379802064786048],[-74.5776318,-12.3765058],[-74.5737226,-12.3737157],[-74.57102921060479,-12.373524600752424],[-74.56969705391701,-12.37361982989591],[-74.5533908,-12.3747855],[-74.5504977,-12.375692],[-74.5449911,-12.3816834],[-74.5410011,-12.388266],[-74.5145873,-12.434936],[-74.5108728,-12.441499],[-74.5075711,-12.4473328],[-74.5071584,-12.448062],[-74.5074096,-12.4486674]]]}},{"type":"Feature","properties":{"ubigeo_distrito":"090704","distrito":"AHUAYCHA","provincia":"TAYACAJA","departamento":"HUANCAVELICA","territorio":"VRAEM"},"geometry":{"type":"Polygon","coordinates":[[[-74.9399676,-12.3386147],[-74.9370052,-12.3353764],[-74.9336726,-12.3317334],[-74.9099739,-12.3058272],[-74.9066412,-12.3021842],[-74.9036789,-12.2989459],[-74.9033086,-12.2985411],[-74.9033793,-12.2991004],[-74.9039449,-12.303575],[-74.9045811,-12.308609],[-74.9091057,-12.3444058],[-74.9093723,-12.349781],[-74.906981,-12.3569862],[-74.9037251,-12.3606174],[-74.8800694,-12.3824619],[-74.8768275,-12.3864059],[-74.8745481,-12.396113],[-74.8749407,-12.4043029],[-74.880361,-12.4601151],[-74.8809626,-12.4684426],[-74.8803548,-12.4792505],[-74.8789934,-12.4844329],[-74.8687104,-12.5150844],[-74.8672644,-12.5193947],[-74.86599699046323,-12.523172574311596],[-74.9385990108027,-12.532384061328049],[-74.9398736,-12.5311388],[-74.9407959,-12.5295796],[-74.9466533,-12.5185922],[-74.9473508,-12.5165213],[-74.947073,-12.5109417],[-74.9460284,-12.5060381],[-74.937949,-12.4723889],[-74.9363842,-12.4675691],[-74.9319456,-12.4626595],[-74.9279621,-12.4613425],[-74.9005325,-12.4557153],[-74.8966918,-12.4541496],[-74.893395,-12.4472512],[-74.8931149,-12.4401939],[-74.8941705,-12.3906342],[-74.8947776,-12.3832881],[-74.8985792,-12.374079],[-74.902724,-12.3699138],[-74.9320812,-12.3458012],[-74.9362095,-12.3424103],[-74.9398792,-12.3393962],[-74.9403379,-12.3390195],[-74.9399676,-12.3386147]]]}},{"type":"Feature","properties":{"ubigeo_distrito":"090701","distrito":"PAMPAS","provincia":"TAYACAJA","departamento":"HUANCAVELICA","territorio":"VRAEM"},"geometry":{"type":"Polygon","coordinates":[[[-74.9029352,-12.298395],[-74.899948,-12.2972261],[-74.8965874,-12.2959111],[-74.8726899,-12.2865598],[-74.8693293,-12.2852448],[-74.8663421,-12.2840758],[-74.8659687,-12.2839297],[-74.8661772,-12.2844473],[-74.8678449,-12.2885883],[-74.8697211,-12.2932469],[-74.8830628,-12.3263745],[-74.8846681,-12.3317322],[-74.8841694,-12.3414668],[-74.8819406,-12.3482772],[-74.8646089,-12.3930258],[-74.8618386,-12.3995323],[-74.8570081,-12.406836],[-74.8537402,-12.409459],[-74.8324278,-12.4231394],[-74.8291953,-12.4254899],[-74.8246473,-12.430614],[-74.8221949,-12.4346685],[-74.8071236,-12.4619806],[-74.8056335,-12.4663618],[-74.8087843,-12.4740992],[-74.8142128,-12.4793898],[-74.8544903,-12.5139774],[-74.8601543,-12.5188412],[-74.8650596854425,-12.523053652372669],[-74.86599699046323,-12.523172574311596],[-74.8672644,-12.5193947],[-74.8687104,-12.5150844],[-74.8789934,-12.4844329],[-74.8803548,-12.4792505],[-74.8809626,-12.4684426],[-74.880361,-12.4601151],[-74.8749407,-12.4043029],[-74.8745481,-12.396113],[-74.8768275,-12.3864059],[-74.8800694,-12.3824619],[-74.9037251,-12.3606174],[-74.906981,-12.3569862],[-74.9093723,-12.349781],[-74.9091057,-12.3444058],[-74.9045811,-12.308609],[-74.9039449,-12.303575],[-74.9033793,-12.2991004],[-74.9033086,-12.2985411],[-74.9029352,-12.298395]]]}},{"type":"Feature","properties":{"ubigeo_distrito":"050408","distrito":"LLOCHEGUA","provincia":"HUANTA","departamento":"AYACUCHO","territorio":"AMUVRAEM"},"geometry":{"type":"Polygon","coordinates":[[[-74.193186,-12.5362791],[-74.198613,-12.5327272],[-74.2047185,-12.5287313],[-74.2481349,-12.500316],[-74.2542867,-12.4958774],[-74.2600854,-12.488784],[-74.2611818,-12.4843557],[-74.2641543,-12.4560232],[-74.2642614,-12.4511552],[-74.2621458,-12.4405437],[-74.2593942,-12.4321472],[-74.2394966,-12.3755872],[-74.2362329,-12.367103],[-74.2300216,-12.3557895],[-74.2255211,-12.3501317],[-74.1957283,-12.3161832],[-74.1915387,-12.3114092],[-74.19124992163657,-12.311080145735831],[-74.18761823361747,-12.314375980101003],[-74.12143948355585,-12.333601480118912],[-74.11554206755778,-12.321161936619614],[-74.102512,-12.2936774],[-74.0998287,-12.2890694],[-74.0931346,-12.283365],[-74.08928630769172,-12.281657363447948],[-74.04082204241918,-12.26425987165122],[-74.0339627,-12.2635758],[-74.0289497,-12.2644017],[-73.9976111,-12.2718829],[-73.9931206,-12.272621],[-73.9885357,-12.2710442],[-73.9872949,-12.2683352],[-73.9819538,-12.2482401],[-73.9812027,-12.2454142],[-73.9805351,-12.2429023],[-73.98045160090489,-12.24258840340173],[-73.98044190929508,-12.242650741985175],[-73.9803057,-12.243527],[-73.9791383,-12.251036],[-73.97860629009499,-12.254457851739424],[-73.9735552579645,-12.286947210498619],[-73.9684857,-12.319556],[-73.96848557151456,-12.319556557977362],[-73.96585898341087,-12.336451355121568],[-73.95162718510765,-12.348861417902752],[-73.951627,-12.3488616],[-73.9010245,-12.3929868],[-73.8938152,-12.3995107],[-73.8867434,-12.4075765],[-73.885113,-12.411135],[-73.8791414,-12.4315368],[-73.8792905,-12.4349067],[-73.8864552,-12.4414642],[-73.8952619,-12.446291],[-73.9585508,-12.4783485],[-73.9679685,-12.4824273],[-73.9800204,-12.483001],[-73.9856677,-12.4796391],[-74.0187945,-12.4521708],[-74.0238035,-12.4484915],[-74.0307494,-12.4465251],[-74.0344226,-12.4477465],[-74.0568626,-12.459484],[-74.0608163,-12.4622975],[-74.070006,-12.4730681],[-74.0775394,-12.4837178],[-74.1286169,-12.5581454],[-74.1357997,-12.5686117],[-74.1421844,-12.5779152],[-74.1429825,-12.5790781],[-74.1434777,-12.5786546],[-74.1474397,-12.5752662],[-74.151897,-12.5714542],[-74.1835931,-12.544347],[-74.1880503,-12.5405351],[-74.1920124,-12.5371467],[-74.1925076,-12.5367231],[-74.193186,-12.5362791]]]}},{"type":"Feature","properties":{"ubigeo_distrito":"090709","distrito":"HUARIBAMBA","provincia":"TAYACAJA","departamento":"HUANCAVELICA","territorio":"VRAEM"},"geometry":{"type":"Polygon","coordinates":[[[-74.9408072,-12.3389505],[-74.9445615,-12.3383987],[-74.9487852,-12.3377779],[-74.9788204,-12.3333635],[-74.9829877,-12.332175],[-74.9862916,-12.3270813],[-74.9862542,-12.3219026],[-74.9826503,-12.285567],[-74.9818867,-12.2800894],[-74.979382,-12.2726038],[-74.9770147,-12.2687245],[-74.960581,-12.2451758],[-74.9592301,-12.2411256],[-74.9648568,-12.2322727],[-74.9732411,-12.2252567],[-75.0346887,-12.1779819],[-75.0434985,-12.1707493],[-75.05006208359764,-12.163055931140207],[-75.06325452168754,-12.107743260802389],[-75.0591118,-12.1088624],[-75.0245024,-12.118212],[-75.0193431,-12.1193837],[-75.0126782,-12.1194079],[-75.0095064,-12.1182664],[-74.9907969,-12.1091101],[-74.9872538,-12.1081505],[-74.9776182,-12.1096301],[-74.9691169,-12.1124393],[-74.9107419,-12.1334329],[-74.90245,-12.1366429],[-74.8944891,-12.1413296],[-74.8928299,-12.1439779],[-74.8875178,-12.1604776],[-74.8863126,-12.162811],[-74.8819833,-12.1649787],[-74.8777768,-12.165355],[-74.8484542,-12.1661972],[-74.8443307,-12.1663157],[-74.8406654,-12.1664209],[-74.8402072,-12.1664341],[-74.8400554,-12.1671887],[-74.8388407,-12.1732256],[-74.8374741,-12.1800171],[-74.8277563,-12.2283123],[-74.8265095,-12.2356006],[-74.8262536,-12.2456119],[-74.8271804,-12.2508376],[-74.8348506,-12.2826322],[-74.8359292,-12.2871034],[-74.836888,-12.2910777],[-74.8370079,-12.2915745],[-74.8372975,-12.291498],[-74.8396143,-12.2908865],[-74.8422208,-12.2901984],[-74.8607558,-12.2853058],[-74.8633623,-12.2846178],[-74.8656791,-12.2840062],[-74.8659687,-12.2839297],[-74.8663421,-12.2840758],[-74.8693293,-12.2852448],[-74.8726899,-12.2865598],[-74.8965874,-12.2959111],[-74.899948,-12.2972261],[-74.9029352,-12.298395],[-74.9033086,-12.2985411],[-74.9036789,-12.2989459],[-74.9066412,-12.3021842],[-74.9099739,-12.3058272],[-74.9336726,-12.3317334],[-74.9370052,-12.3353764],[-74.9399676,-12.3386147],[-74.9403379,-12.3390195],[-74.9408072,-12.3389505]]]}},{"type":"Feature","properties":{"ubigeo_distrito":"090714","distrito":"SALCABAMBA","provincia":"TAYACAJA","departamento":"HUANCAVELICA","territorio":"VRAEM"},"geometry":{"type":"Polygon","coordinates":[[[-74.839977,-12.1655244],[-74.8381351,-12.1582471],[-74.836063,-12.15006],[-74.8213279,-12.091841],[-74.8192557,-12.0836539],[-74.8174138,-12.0763765],[-74.8171836,-12.0754669],[-74.8167849,-12.0760402],[-74.8135949,-12.0806274],[-74.8100062,-12.0857879],[-74.7844863,-12.1224848],[-74.7807128,-12.1281417],[-74.7760442,-12.1366998],[-74.7739821,-12.1417405],[-74.7621538,-12.173508],[-74.7599469,-12.1776492],[-74.75412,-12.1790111],[-74.7490433,-12.1765724],[-74.7142564,-12.1557004],[-74.7093645,-12.1527652],[-74.7050162,-12.1501562],[-74.7044726,-12.1498301],[-74.7044086,-12.1506526],[-74.7038969,-12.1572324],[-74.7033213,-12.1646347],[-74.6992276,-12.2172734],[-74.6990582,-12.2250594],[-74.7017972,-12.2347089],[-74.7053903,-12.2389848],[-74.7313959,-12.2635424],[-74.7350529,-12.2669958],[-74.7383036,-12.2700655],[-74.73871,-12.2704492],[-74.7388948,-12.2698318],[-74.7403734,-12.2648919],[-74.7420369,-12.2593347],[-74.7538657,-12.2198162],[-74.755801,-12.2144134],[-74.7594544,-12.2107093],[-74.7620858,-12.211482],[-74.7794838,-12.221368],[-74.7818897,-12.2233592],[-74.7837392,-12.2294025],[-74.783645,-12.2349654],[-74.7810425,-12.2734256],[-74.7812434,-12.2789073],[-74.7854539,-12.2843014],[-74.790516,-12.2855622],[-74.8268023,-12.2902547],[-74.8319051,-12.2909146],[-74.8364409,-12.2915012],[-74.8370079,-12.2915745],[-74.836888,-12.2910777],[-74.8359292,-12.2871034],[-74.8348506,-12.2826322],[-74.8271804,-12.2508376],[-74.8262536,-12.2456119],[-74.8265095,-12.2356006],[-74.8277563,-12.2283123],[-74.8374741,-12.1800171],[-74.8388407,-12.1732256],[-74.8400554,-12.1671887],[-74.8402072,-12.1664341],[-74.839977,-12.1655244]]]}},{"type":"Feature","properties":{"ubigeo_distrito":"090717","distrito":"SURCUBAMBA","provincia":"TAYACAJA","departamento":"HUANCAVELICA","territorio":"VRAEM"},"geometry":{"type":"Polygon","coordinates":[[[-74.7383036,-12.2700655],[-74.7350529,-12.2669958],[-74.7313959,-12.2635424],[-74.7053903,-12.2389848],[-74.7017972,-12.2347089],[-74.6990582,-12.2250594],[-74.6992276,-12.2172734],[-74.7033213,-12.1646347],[-74.7038969,-12.1572324],[-74.7044086,-12.1506526],[-74.7044726,-12.1498301],[-74.7043912,-12.1494423],[-74.7037396,-12.1463401],[-74.7030066,-12.1428502],[-74.6977941,-12.1180327],[-74.6972987,-12.1140235],[-74.6985481,-12.1067675],[-74.7006052,-12.1017066],[-74.7158128,-12.0684761],[-74.7179514,-12.063803],[-74.7198524,-12.0596492],[-74.72009,-12.05913],[-74.7197051,-12.0588336],[-74.71895317437553,-12.05825456452301],[-74.71690010911043,-12.059419979863554],[-74.7086045213496,-12.050285375754797],[-74.6885282,-12.0348252],[-74.6850641,-12.0321576],[-74.6819849,-12.0297864],[-74.6816,-12.02949],[-74.6807501,-12.0302516],[-74.6739507,-12.0363449],[-74.6663014,-12.0431998],[-74.6119063,-12.091946],[-74.6035969,-12.0988261],[-74.5915161,-12.1051205],[-74.5847245,-12.1061084],[-74.5424732,-12.1077174],[-74.536449,-12.1081124],[-74.5305069,-12.1096633],[-74.5291034,-12.1112068],[-74.5238179,-12.1220045],[-74.5235702,-12.1236149],[-74.5268741,-12.1257004],[-74.5312517,-12.1266968],[-74.5629685,-12.1325828],[-74.5677947,-12.1337067],[-74.5746872,-12.1368116],[-74.5784767,-12.139569],[-74.6019003,-12.1585227],[-74.6052546,-12.1620084],[-74.6086652,-12.1709396],[-74.6095742,-12.1786179],[-74.6134356,-12.2311138],[-74.6144499,-12.2384756],[-74.6187026,-12.2448742],[-74.6230042,-12.2455106],[-74.6531644,-12.2442035],[-74.6579305,-12.2444354],[-74.6658985,-12.2475978],[-74.6710926,-12.251319],[-74.704677,-12.2779257],[-74.7099506,-12.2817096],[-74.7185553,-12.2853743],[-74.7240375,-12.2861713],[-74.7592903,-12.2888821],[-74.7642385,-12.2892474],[-74.7685719,-12.2894595],[-74.7690404,-12.2893593],[-74.7684547,-12.2883452],[-74.7680765,-12.2880265],[-74.7656369,-12.2864909],[-74.7629656,-12.28489],[-74.7440344,-12.2736192],[-74.7413722,-12.2720342],[-74.7390058,-12.2706253],[-74.73871,-12.2704492],[-74.7383036,-12.2700655]]]}},{"type":"Feature","properties":{"ubigeo_distrito":"090716","distrito":"SAN MARCOS DE ROCCHAC","provincia":"TAYACAJA","departamento":"HUANCAVELICA","territorio":"VRAEM"},"geometry":{"type":"Polygon","coordinates":[[[-75.0389297,-12.0123924],[-75.03852140703901,-12.012389445923377],[-74.94315123622856,-12.021621510020625],[-74.9378951,-12.0248438],[-74.885508,-12.0569594],[-74.8773761,-12.0613987],[-74.87697058751725,-12.061507483071397],[-74.87077410925373,-12.06599197986967],[-74.83737360922264,-12.070818479874177],[-74.8018463060848,-12.059051842118032],[-74.8011645,-12.0589832],[-74.7950449,-12.058367],[-74.79428,-12.05829],[-74.794509,-12.0584617],[-74.7963413,-12.0598359],[-74.7984026,-12.0613818],[-74.813061,-12.072375],[-74.8151223,-12.0739209],[-74.8169546,-12.0752951],[-74.8171836,-12.0754669],[-74.8174138,-12.0763765],[-74.8192557,-12.0836539],[-74.8213279,-12.091841],[-74.836063,-12.15006],[-74.8381351,-12.1582471],[-74.839977,-12.1655244],[-74.8402072,-12.1664341],[-74.8406654,-12.1664209],[-74.8443307,-12.1663157],[-74.8484542,-12.1661972],[-74.8777768,-12.165355],[-74.8819833,-12.1649787],[-74.8863126,-12.162811],[-74.8875178,-12.1604776],[-74.8928299,-12.1439779],[-74.8944891,-12.1413296],[-74.90245,-12.1366429],[-74.9107419,-12.1334329],[-74.9691169,-12.1124393],[-74.9776182,-12.1096301],[-74.9872538,-12.1081505],[-74.9907969,-12.1091101],[-75.0095064,-12.1182664],[-75.0126782,-12.1194079],[-75.0193431,-12.1193837],[-75.0245024,-12.118212],[-75.0591118,-12.1088624],[-75.06325452168754,-12.107743260802389],[-75.07460660944356,-12.060146729864249],[-75.0493287305534,-12.015576854352267],[-75.0389297,-12.0123924]]]}},{"type":"Feature","properties":{"ubigeo_distrito":"120124","distrito":"PARIAHUANCA","provincia":"HUANCAYO","departamento":"JUNIN","territorio":"VRAEM"},"geometry":{"type":"Polygon","coordinates":[[[-74.9525683,-12.0155909],[-74.9520829,-12.0138284],[-74.9515369,-12.0118455],[-74.9476538,-11.9977453],[-74.9477529,-11.9950347],[-74.952428,-11.9874502],[-74.9581729,-11.9806803],[-74.9994571,-11.9341048],[-75.0056867,-11.9273808],[-75.0142397,-11.9201641],[-75.0187014,-11.9178672],[-75.0458415,-11.9067087],[-75.0497481,-11.9049934],[-75.0538616,-11.9024299],[-75.0550966,-11.9009407],[-75.0608638,-11.8915908],[-75.061206,-11.8895988],[-75.0581764,-11.8830134],[-75.05404819136093,-11.87677504921227],[-75.02587493222713,-11.836085975370027],[-75.0240425,-11.8334395],[-75.0195966,-11.8273024],[-75.01413113399472,-11.821640436987586],[-74.92148623430096,-11.846087104664909],[-74.92002992812711,-11.845576975537695],[-74.9191814,-11.8458143],[-74.9154472,-11.8461248],[-74.8939752,-11.8462589],[-74.8909557,-11.8462777],[-74.8882717,-11.8462945],[-74.8879362,-11.8462966],[-74.8872349,-11.8471908],[-74.8816245,-11.8543445],[-74.8753127,-11.8623924],[-74.8304291,-11.9196217],[-74.8235527,-11.927719],[-74.8134248,-11.935268],[-74.8076415,-11.9366069],[-74.7715023,-11.9397692],[-74.7655153,-11.940928],[-74.753759,-11.9470356],[-74.7450505,-11.9535115],[-74.6871391,-11.9992107],[-74.6789953,-12.0056372],[-74.67262356245311,-12.010665300065327],[-74.7086045213496,-12.050285375754797],[-74.7131618,-12.0537948],[-74.7166259,-12.0564624],[-74.71895317437553,-12.05825456452301],[-74.74860998413995,-12.041419979846799],[-74.8018463060848,-12.059051842118032],[-74.8080489,-12.0596763],[-74.8570052,-12.0646056],[-74.8647082,-12.064797],[-74.87697058751725,-12.061507483071397],[-74.93037423430924,-12.022858354829514],[-74.94315123622856,-12.021621510020625],[-74.945262,-12.0203275],[-74.9518104,-12.016313],[-74.952629,-12.0158112],[-74.9525683,-12.0155909]]]}},{"type":"Feature","properties":{"ubigeo_distrito":"120135","distrito":"SANTO DOMINGO DE ACOBAMBA","provincia":"HUANCAYO","departamento":"JUNIN","territorio":"VRAEM"},"geometry":{"type":"Polygon","coordinates":[[[-74.8875665,-11.8458563],[-74.8846087,-11.8423343],[-74.8812812,-11.8383719],[-74.8576188,-11.8101954],[-74.8541677,-11.8058391],[-74.8502216,-11.7991649],[-74.8487401,-11.7951786],[-74.8408337,-11.7699621],[-74.8390357,-11.7664108],[-74.8325586,-11.7632172],[-74.8262602,-11.7627764],[-74.7823498,-11.7624436],[-74.78234956920582,-11.762443577957775],[-74.7699999841599,-11.762349979586928],[-74.76915886650941,-11.752496996392662],[-74.7691588,-11.7524967],[-74.7661681,-11.717463],[-74.7653044,-11.7121069],[-74.7613856,-11.7042918],[-74.75735095303176,-11.699879167368538],[-74.75181287851763,-11.694511531679195],[-74.7289908,-11.6723919],[-74.7250027,-11.6685265],[-74.7214577,-11.6650906],[-74.72101460608407,-11.66466110589733],[-74.64515134174475,-11.699746737295898],[-74.6434075,-11.7039839],[-74.6436115,-11.7075971],[-74.64646566629169,-11.7253045362971],[-74.64848935904669,-11.7378596045641],[-74.61924526323575,-11.783393931407419],[-74.606022,-11.8039832],[-74.6011728,-11.8118795],[-74.5955247,-11.8234415],[-74.5933140613886,-11.829996924878598],[-74.57788860898096,-11.882384729698707],[-74.54932188888242,-11.879641507417427],[-74.5435464,-11.8790869],[-74.539284,-11.8793634],[-74.5319885,-11.8841492],[-74.52713169399541,-11.88985478957779],[-74.51823803574084,-11.901369247729477],[-74.4955716,-11.9307151],[-74.491343,-11.9369098],[-74.4890743,-11.9456073],[-74.4904668457081,-11.950284317654663],[-74.5038770931316,-11.979004847557958],[-74.5061762,-11.9831423],[-74.5111605,-11.987525],[-74.51509165997602,-11.988865486352223],[-74.51722154546187,-11.989375841702778],[-74.5415563,-11.9952068],[-74.5452779,-11.9960986],[-74.54560652626792,-11.996177346725485],[-74.54899948395406,-11.99699035480542],[-74.54899981041402,-11.996990351224191],[-74.5497511,-11.9968723],[-74.5557643,-11.9959276],[-74.5625292,-11.9948648],[-74.6106349,-11.9873075],[-74.6178666,-11.9865135],[-74.6276148,-11.9877194],[-74.6325682,-11.9900207],[-74.64288413331083,-11.995960450862341],[-74.6591077340566,-11.995782479804308],[-74.67262356245311,-12.010665300065327],[-74.6789953,-12.0056372],[-74.6871391,-11.9992107],[-74.7450505,-11.9535115],[-74.753759,-11.9470356],[-74.7655153,-11.940928],[-74.7715023,-11.9397692],[-74.8076415,-11.9366069],[-74.8134248,-11.935268],[-74.8235527,-11.927719],[-74.8304291,-11.9196217],[-74.8753127,-11.8623924],[-74.8816245,-11.8543445],[-74.8872349,-11.8471908],[-74.8879362,-11.8462966],[-74.8875665,-11.8458563]]]}},{"type":"Feature","properties":{"ubigeo_distrito":"120603","distrito":"LLAYLLA","provincia":"SATIPO","departamento":"JUNIN","territorio":"NORVRAEM"},"geometry":{"type":"Polygon","coordinates":[[[-74.7657297,-11.5979128],[-74.7634913,-11.5940117],[-74.7609732,-11.5896229],[-74.7430662,-11.5584138],[-74.7400803,-11.5525235],[-74.7340998,-11.5366104],[-74.7296101,-11.5226093],[-74.6996732,-11.4265136],[-74.6951721,-11.412587],[-74.6890995,-11.3972694],[-74.68601,-11.392049],[-74.6673666,-11.3656037],[-74.6647448,-11.3618848],[-74.6624144,-11.3585792],[-74.6621231,-11.358166],[-74.6616229,-11.3581598],[-74.6576211,-11.3581104],[-74.6531191,-11.3580548],[-74.6211051,-11.3576593],[-74.6166031,-11.3576037],[-74.6126013,-11.3575543],[-74.6121011,-11.3575481],[-74.6112607,-11.3574768],[-74.6045374,-11.3569066],[-74.5969737,-11.356265],[-74.5431874,-11.351703],[-74.5356237,-11.3510615],[-74.5289004,-11.3504913],[-74.52806,-11.35042],[-74.5281149,-11.3510367],[-74.5285546,-11.3559708],[-74.5290493,-11.3615217],[-74.5325668,-11.4009943],[-74.5338872,-11.4071297],[-74.5409331,-11.4167399],[-74.54842,-11.4226173],[-74.6012692,-11.4600265],[-74.6086605,-11.4655809],[-74.6149416,-11.4726065],[-74.6154017,-11.4758341],[-74.6128011,-11.4946297],[-74.6128683,-11.4975861],[-74.6160061,-11.5024416],[-74.6198611,-11.5055545],[-74.6475638,-11.5256027],[-74.6514092,-11.5287421],[-74.654469,-11.5338096],[-74.6544485,-11.5370044],[-74.6512247,-11.5574956],[-74.6514854,-11.5606767],[-74.6567947,-11.5656347],[-74.6631707,-11.5686511],[-74.7088693,-11.5878239],[-74.7153757,-11.5906981],[-74.7217283,-11.5945191],[-74.7231627,-11.596421],[-74.7282853,-11.6078159],[-74.7290056,-11.6094183],[-74.7296459,-11.6108427],[-74.729726,-11.6110207],[-74.7300888,-11.6108945],[-74.7329915,-11.6098849],[-74.736257,-11.6087491],[-74.7594785,-11.6006721],[-74.762744,-11.5995363],[-74.7656466,-11.5985267],[-74.7660095,-11.5984005],[-74.7657297,-11.5979128]]]}},{"type":"Feature","properties":{"ubigeo_distrito":"120606","distrito":"PANGOA","provincia":"SATIPO","departamento":"JUNIN","territorio":"NORVRAEM"},"geometry":{"type":"Polygon","coordinates":[[[-74.7296459,-11.6108427],[-74.7290056,-11.6094183],[-74.7282853,-11.6078159],[-74.7231627,-11.596421],[-74.7217283,-11.5945191],[-74.7153757,-11.5906981],[-74.7088693,-11.5878239],[-74.6631707,-11.5686511],[-74.6567947,-11.5656347],[-74.6514854,-11.5606767],[-74.6512247,-11.5574956],[-74.6544485,-11.5370044],[-74.654469,-11.5338096],[-74.6514092,-11.5287421],[-74.6475638,-11.5256027],[-74.6198611,-11.5055545],[-74.6160061,-11.5024416],[-74.6128683,-11.4975861],[-74.6128011,-11.4946297],[-74.6154017,-11.4758341],[-74.6149416,-11.4726065],[-74.6086605,-11.4655809],[-74.6012692,-11.4600265],[-74.54842,-11.4226173],[-74.5409331,-11.4167399],[-74.5338872,-11.4071297],[-74.5325668,-11.4009943],[-74.5290493,-11.3615217],[-74.5285546,-11.3559708],[-74.5281149,-11.3510367],[-74.52806,-11.35042],[-74.5276316,-11.3506927],[-74.5242044,-11.3528743],[-74.5203488,-11.3553286],[-74.4929312,-11.3727814],[-74.4886168,-11.374919],[-74.481519,-11.3745669],[-74.4769611,-11.3719892],[-74.4475963,-11.3517196],[-74.443051,-11.3494004],[-74.4360534,-11.3511169],[-74.4318517,-11.3555817],[-74.4052357,-11.3895835],[-74.4014252,-11.3952679],[-74.3975573,-11.4067412],[-74.3965328,-11.4153985],[-74.3922051,-11.4731834],[-74.3912631,-11.4816745],[-74.3880543,-11.4918191],[-74.3849853,-11.4960087],[-74.3636424,-11.5193806],[-74.3605103,-11.5231432],[-74.3567966,-11.5298714],[-74.3552865,-11.5345193],[-74.3469197,-11.5649737],[-74.3452872,-11.5700403],[-74.3405944,-11.5801189],[-74.3363609,-11.5876505],[-74.3071855,-11.6378249],[-74.3022625,-11.6455591],[-74.2920539,-11.6572584],[-74.2842163,-11.6641483],[-74.2317236,-11.7075681],[-74.2233559,-11.7141458],[-74.2089072,-11.7233468],[-74.199214,-11.7282706],[-74.1361173,-11.7584594],[-74.1271363,-11.7630953],[-74.118385,-11.7699941],[-74.1164269,-11.7739817],[-74.1095131,-11.7989834],[-74.1081723,-11.8027965],[-74.1043601,-11.8082999],[-74.1009355,-11.8113659],[-74.0773511,-11.830391],[-74.0731862,-11.8340473],[-74.0634517,-11.8442721],[-74.0554485,-11.8533968],[-74.001157,-11.91617],[-73.9935222,-11.9249975],[-73.9867358,-11.9328441],[-73.9858875,-11.933825],[-73.9861905,-11.9344138],[-73.9886146,-11.9391243],[-73.9913418,-11.9444236],[-74.0107349,-11.9821078],[-74.0138491,-11.9876659],[-74.0193692,-11.9944462],[-74.0231552,-11.9973635],[-74.0479229,-12.0139217],[-74.0515176,-12.0170917],[-74.0555071,-12.025893],[-74.0568994,-12.0337246],[-74.0640481,-12.0875768],[-74.0649861,-12.0958394],[-74.0653419,-12.1080883],[-74.0648486,-12.1151367],[-74.0605465,-12.1592751],[-74.0596231,-12.165505],[-74.0565379,-12.1712061],[-74.053605,-12.1721025],[-74.0332262,-12.1735727],[-74.030213,-12.1742176],[-74.0264855,-12.1779064],[-74.0248394,-12.1818726],[-74.0153983,-12.2099131],[-74.0137477,-12.2141042],[-74.0099843,-12.2195923],[-74.0069305,-12.2222615],[-73.9862641,-12.2381264],[-73.9833578,-12.2403574],[-73.9807745,-12.2423405],[-73.98045164259322,-12.2425883672999],[-74.04082204241918,-12.26425987165122],[-74.0427275,-12.2644499],[-74.0486706,-12.2663685],[-74.0874504,-12.2808427],[-74.08928630769172,-12.281657363447948],[-74.09835723353432,-12.284913605073564],[-74.11554206755778,-12.321161936619614],[-74.1172847,-12.3248377],[-74.1200212,-12.3289499],[-74.1271405,-12.3306876],[-74.1333032,-12.3287476],[-74.1754854,-12.3114892],[-74.1814172,-12.3090622],[-74.18669,-12.3069049],[-74.1873491,-12.3066352],[-74.1884482,-12.3058292],[-74.1972413,-12.2993813],[-74.2071335,-12.2921274],[-74.23318059695768,-12.273027163224283],[-74.27051573369468,-12.239144730030949],[-74.28251996347203,-12.23695514388745],[-74.2876165,-12.2333274],[-74.2983784,-12.2271788],[-74.3016925,-12.2267095],[-74.3174431,-12.2291037],[-74.3198988,-12.22888],[-74.3237934,-12.2246961],[-74.3262058456689,-12.219690327731488],[-74.33298484896929,-12.203909004046185],[-74.3416125,-12.183824],[-74.3438435,-12.1785206],[-74.3462843,-12.1719597],[-74.3471045,-12.1690618],[-74.3497990242675,-12.158192745489394],[-74.35238410877093,-12.147764979945846],[-74.41213982235924,-12.09971098978207],[-74.4153172,-12.0961937],[-74.4198321,-12.0895876],[-74.4476985,-12.0458734],[-74.45130643642432,-12.040648042462498],[-74.45553598386702,-12.0335787298395],[-74.46144722522351,-12.03350983697978],[-74.4614474,-12.0335098],[-74.47368810743261,-12.033367175002367],[-74.48246605142039,-12.033264872012639],[-74.4860277,-12.0328684],[-74.4935048,-12.0299413],[-74.49928891640016,-12.02667915994533],[-74.54899943454643,-11.996990384313305],[-74.548586,-11.9968913],[-74.54560652626792,-11.996177346725485],[-74.51722154546187,-11.989375841702778],[-74.5150917,-11.9888655],[-74.51509165997602,-11.988865486352223],[-74.50764848391556,-11.987081979796201],[-74.5038770931316,-11.979004847557958],[-74.5038769,-11.9790045],[-74.4904669,-11.9502845],[-74.4904668457081,-11.950284317654663],[-74.48669535889603,-11.942206979754411],[-74.51823803574084,-11.901369247729477],[-74.5271316,-11.8898549],[-74.52713169399541,-11.88985478957779],[-74.53600785894197,-11.878362979694948],[-74.54932188888242,-11.879641507417427],[-74.5703501,-11.8816608],[-74.5743075,-11.8813839],[-74.5791628,-11.8765947],[-74.5812746,-11.8708851],[-74.5933138,-11.8299977],[-74.5933140613886,-11.829996924878598],[-74.59669985899848,-11.818498104639215],[-74.61924526323575,-11.783393931407419],[-74.6391672,-11.7523745],[-74.6437688,-11.744748],[-74.6474361,-11.7353445],[-74.6474186,-11.7312166],[-74.64646566629169,-11.7253045362971],[-74.64254073404116,-11.700954104529727],[-74.64515134174475,-11.699746737295898],[-74.645583,-11.6986979],[-74.6485063,-11.6957035],[-74.6697173,-11.6770349],[-74.6731534,-11.6743384],[-74.6794313,-11.671435],[-74.6838426,-11.6705022],[-74.7128549,-11.6659433],[-74.7169348,-11.6653022],[-74.7205613,-11.6647323],[-74.7210146,-11.6646611],[-74.72101461902506,-11.664660982835372],[-74.72514173411811,-11.61399847944875],[-74.72943015532918,-11.612842486720984],[-74.7296389,-11.6115571],[-74.729726,-11.6110207],[-74.7296459,-11.6108427]]]}},{"type":"Feature","properties":{"ubigeo_distrito":"120605","distrito":"PAMPA HERMOSA","provincia":"SATIPO","departamento":"JUNIN","territorio":"NORVRAEM"},"geometry":{"type":"Polygon","coordinates":[[[-74.8888831,-11.2697321],[-74.8789879,-11.2696688],[-74.8678557,-11.2695976],[-74.788694,-11.2690913],[-74.7773382,-11.2693519],[-74.7656536,-11.2719429],[-74.7624037,-11.2749212],[-74.7480891,-11.2961561],[-74.7456098,-11.2991287],[-74.7400898,-11.3016744],[-74.7356691,-11.3018839],[-74.7058239,-11.3010145],[-74.701627,-11.3008922],[-74.6978963,-11.3007836],[-74.69743,-11.30077],[-74.6976097,-11.301063],[-74.6990471,-11.3034071],[-74.7006642,-11.3060443],[-74.7121635,-11.3247975],[-74.7132479,-11.3277156],[-74.7104233,-11.3323073],[-74.7058083,-11.3351288],[-74.6717125,-11.353109],[-74.6669178,-11.3556375],[-74.6626559,-11.357885],[-74.6621231,-11.358166],[-74.6624144,-11.3585792],[-74.6647448,-11.3618848],[-74.6673666,-11.3656037],[-74.68601,-11.392049],[-74.6890995,-11.3972694],[-74.6951721,-11.412587],[-74.6996732,-11.4265136],[-74.7296101,-11.5226093],[-74.7340998,-11.5366104],[-74.7400803,-11.5525235],[-74.7430662,-11.5584138],[-74.7609732,-11.5896229],[-74.7634913,-11.5940117],[-74.7657297,-11.5979128],[-74.7660095,-11.5984005],[-74.7665519,-11.5983001],[-74.7708908,-11.597497],[-74.7757721,-11.5965935],[-74.8104836,-11.5901689],[-74.8160317,-11.5887686],[-74.8257044,-11.5839909],[-74.8322473,-11.579419],[-74.8749177,-11.5476217],[-74.8813758,-11.5433224],[-74.8903707,-11.540725],[-74.8951561,-11.5417776],[-74.89536433756929,-11.541855937403408],[-74.91707885929686,-11.528412354369053],[-74.93494858276118,-11.555112086304232],[-74.9360292,-11.5552604],[-74.940292,-11.5549706],[-74.9673513,-11.5516856],[-74.9709483,-11.5507555],[-74.9726652,-11.5465998],[-74.9712143,-11.5423351],[-74.96817944639241,-11.535510733750561],[-74.95788985299097,-11.512373033750288],[-74.955635,-11.5080034],[-74.9509167,-11.5029999],[-74.94727419584858,-11.501116149568865],[-74.93682387697834,-11.496808616846566],[-74.9228519,-11.4910495],[-74.9228518475838,-11.491049464943044],[-74.91598310929585,-11.48821822933161],[-74.92623469276482,-11.479210803600921],[-74.9262349,-11.4792106],[-74.94584208818833,-11.461983010588852],[-74.96268596777645,-11.447183346237901],[-74.9683663,-11.4418003],[-74.9773599,-11.4307615],[-74.9829215,-11.4223461],[-75.0184202,-11.3660623],[-75.0235698,-11.3576209],[-75.0292676,-11.3463738],[-75.0312403,-11.3407562],[-75.0413243,-11.3070626],[-75.0419831,-11.3023515],[-75.04099875818255,-11.301534552123588],[-74.96823998434449,-11.300299854156622],[-74.89121998427278,-11.27062997912897],[-74.89135955988445,-11.27022490719494],[-74.8909012,-11.2700456],[-74.89012,-11.26974],[-74.8888831,-11.2697321]]]}},{"type":"Feature","properties":{"ubigeo_distrito":"120602","distrito":"COVIRIALI","provincia":"SATIPO","departamento":"JUNIN","territorio":"NORVRAEM"},"geometry":{"type":"Polygon","coordinates":[[[-74.6968256,-11.300398],[-74.6919909,-11.2974217],[-74.6865518,-11.2940735],[-74.6478736,-11.2702636],[-74.6420248,-11.2672504],[-74.6339129,-11.2669542],[-74.6296218,-11.2695973],[-74.6034047,-11.291038],[-74.5997179,-11.2940531],[-74.5964408,-11.2967332],[-74.5960311,-11.2970682],[-74.5961918,-11.297673],[-74.5974774,-11.3025114],[-74.5989237,-11.3079546],[-74.6092085,-11.3466617],[-74.6106548,-11.3521049],[-74.6119404,-11.3569433],[-74.6121011,-11.3575481],[-74.6126013,-11.3575543],[-74.6166031,-11.3576037],[-74.6211051,-11.3576593],[-74.6531191,-11.3580548],[-74.6576211,-11.3581104],[-74.6616229,-11.3581598],[-74.6621231,-11.358166],[-74.6626559,-11.357885],[-74.6669178,-11.3556375],[-74.6717125,-11.353109],[-74.7058083,-11.3351288],[-74.7104233,-11.3323073],[-74.7132479,-11.3277156],[-74.7121635,-11.3247975],[-74.7006642,-11.3060443],[-74.6990471,-11.3034071],[-74.6976097,-11.301063],[-74.69743,-11.30077],[-74.6968256,-11.300398]]]}},{"type":"Feature","properties":{"ubigeo_distrito":"120604","distrito":"MAZAMARI","provincia":"SATIPO","departamento":"JUNIN","territorio":"NORVRAEM"},"geometry":{"type":"Polygon","coordinates":[[[-74.5289004,-11.3504913],[-74.5356237,-11.3510615],[-74.5431874,-11.351703],[-74.5969737,-11.356265],[-74.6045374,-11.3569066],[-74.6112607,-11.3574768],[-74.6121011,-11.3575481],[-74.6119404,-11.3569433],[-74.6106548,-11.3521049],[-74.6092085,-11.3466617],[-74.5989237,-11.3079546],[-74.5974774,-11.3025114],[-74.5961918,-11.297673],[-74.5960311,-11.2970682],[-74.5955243,-11.2968714],[-74.5914701,-11.2952965],[-74.586909,-11.2935249],[-74.554475,-11.2809262],[-74.5492741,-11.2786235],[-74.5401004,-11.2728006],[-74.5338342,-11.2678247],[-74.4928783,-11.2338401],[-74.4865446,-11.228979],[-74.4768306,-11.2240747],[-74.4710219,-11.2228054],[-74.434266,-11.2175555],[-74.4290972,-11.2168172],[-74.4245027,-11.216161],[-74.4239284,-11.216079],[-74.4236288,-11.2160629],[-74.4212323,-11.2159339],[-74.4185361,-11.2157888],[-74.3993638,-11.2147571],[-74.3958893,-11.2140142],[-74.3872659,-11.2091024],[-74.379961,-11.2037055],[-74.3301455,-11.1654425],[-74.3222846,-11.1601601],[-74.3092131,-11.1561638],[-74.3007346,-11.1564509],[-74.2459782,-11.1627441],[-74.2383947,-11.1640186],[-74.2324834,-11.1679207],[-74.2326776,-11.1715239],[-74.2401429,-11.1964478],[-74.2409684,-11.2010289],[-74.2401071,-11.2127542],[-74.238205,-11.2228297],[-74.2238497,-11.2917082],[-74.2214674,-11.3019386],[-74.2167649,-11.3149039],[-74.213269,-11.32088],[-74.190004,-11.3557235],[-74.1855074,-11.3620867],[-74.1728,-11.3781488],[-74.1614122,-11.3918632],[-74.0830174,-11.4855165],[-74.0720501,-11.4993403],[-74.062707,-11.5162776],[-74.0619952,-11.5236254],[-74.0656446,-11.5654705],[-74.0657484,-11.571799],[-74.0629298,-11.5805813],[-74.0593027,-11.5852308],[-74.0331044,-11.6136443],[-74.0294041,-11.6183706],[-74.0260005,-11.6277679],[-74.0254461,-11.6347881],[-74.024415,-11.6815524],[-74.0238076,-11.6887545],[-74.0199796,-11.699607],[-74.015802,-11.7059705],[-73.986209,-11.746026],[-73.9818404,-11.7522099],[-73.976485,-11.7616257],[-73.9741592,-11.7672116],[-73.9609083,-11.8024826],[-73.9591419,-11.8077333],[-73.9582617,-11.8144678],[-73.9589278,-11.8176353],[-73.9651367,-11.8362404],[-73.9655854,-11.8392765],[-73.9629659,-11.8449601],[-73.9592428,-11.8490284],[-73.9320777,-11.8758919],[-73.9288721,-11.8801733],[-73.9303924,-11.8875615],[-73.9354985,-11.8925152],[-73.9748265,-11.924757],[-73.980357,-11.929291],[-73.985273,-11.9333212],[-73.9858875,-11.933825],[-73.9867358,-11.9328441],[-73.9935222,-11.9249975],[-74.001157,-11.91617],[-74.0554485,-11.8533968],[-74.0634517,-11.8442721],[-74.0731862,-11.8340473],[-74.0773511,-11.830391],[-74.1009355,-11.8113659],[-74.1043601,-11.8082999],[-74.1081723,-11.8027965],[-74.1095131,-11.7989834],[-74.1164269,-11.7739817],[-74.118385,-11.7699941],[-74.1271363,-11.7630953],[-74.1361173,-11.7584594],[-74.199214,-11.7282706],[-74.2089072,-11.7233468],[-74.2233559,-11.7141458],[-74.2317236,-11.7075681],[-74.2842163,-11.6641483],[-74.2920539,-11.6572584],[-74.3022625,-11.6455591],[-74.3071855,-11.6378249],[-74.3363609,-11.5876505],[-74.3405944,-11.5801189],[-74.3452872,-11.5700403],[-74.3469197,-11.5649737],[-74.3552865,-11.5345193],[-74.3567966,-11.5298714],[-74.3605103,-11.5231432],[-74.3636424,-11.5193806],[-74.3849853,-11.4960087],[-74.3880543,-11.4918191],[-74.3912631,-11.4816745],[-74.3922051,-11.4731834],[-74.3965328,-11.4153985],[-74.3975573,-11.4067412],[-74.4014252,-11.3952679],[-74.4052357,-11.3895835],[-74.4318517,-11.3555817],[-74.4360534,-11.3511169],[-74.443051,-11.3494004],[-74.4475963,-11.3517196],[-74.4769611,-11.3719892],[-74.481519,-11.3745669],[-74.4886168,-11.374919],[-74.4929312,-11.3727814],[-74.5203488,-11.3553286],[-74.5242044,-11.3528743],[-74.5276316,-11.3506927],[-74.52806,-11.35042],[-74.5289004,-11.3504913]]]}},{"type":"Feature","properties":{"ubigeo_distrito":"120601","distrito":"SATIPO","provincia":"SATIPO","departamento":"JUNIN","territorio":"NORVRAEM"},"geometry":{"type":"Polygon","coordinates":[[[-74.6978963,-11.3007836],[-74.701627,-11.3008922],[-74.7058239,-11.3010145],[-74.7356691,-11.3018839],[-74.7400898,-11.3016744],[-74.7456098,-11.2991287],[-74.7480891,-11.2961561],[-74.7624037,-11.2749212],[-74.7656536,-11.2719429],[-74.7773382,-11.2693519],[-74.788694,-11.2690913],[-74.8678557,-11.2695976],[-74.8789879,-11.2696688],[-74.8888831,-11.2697321],[-74.89012,-11.26974],[-74.8903293,-11.2691734],[-74.8920037,-11.2646406],[-74.8938874,-11.2595412],[-74.9072826,-11.2232788],[-74.9088252,-11.2176053],[-74.9077708,-11.2084797],[-74.90491021716775,-11.202746234409327],[-74.88307973574845,-11.166003697373782],[-74.8797993,-11.160764],[-74.8753857,-11.155588],[-74.8731492,-11.1543578],[-74.8596709,-11.1496922],[-74.8577755,-11.1490361],[-74.8560907,-11.1484529],[-74.8558801,-11.14838],[-74.855552,-11.1489002],[-74.8529269,-11.1530623],[-74.8499737,-11.1577445],[-74.8289732,-11.1910407],[-74.8252653,-11.1955238],[-74.8166024,-11.1980924],[-74.8094817,-11.1968202],[-74.7611789,-11.1840733],[-74.7539419,-11.1827831],[-74.7443491,-11.1852085],[-74.739595,-11.1895304],[-74.711155,-11.2216804],[-74.7067543,-11.2262628],[-74.6999891,-11.2307714],[-74.6959332,-11.2318249],[-74.6702514,-11.2357443],[-74.6663448,-11.2360137],[-74.6607743,-11.2342492],[-74.6577176,-11.2317743],[-74.6388349,-11.2137396],[-74.6364265,-11.2102179],[-74.6360424,-11.2000791],[-74.6379706,-11.1909273],[-74.6537802,-11.1278514],[-74.6557866,-11.1186714],[-74.6560288,-11.1083067],[-74.6543251,-11.1045309],[-74.6404529,-11.0846891],[-74.6374697,-11.0816517],[-74.627476,-11.0771947],[-74.6179671,-11.0746608],[-74.5518899,-11.0588462],[-74.5425759,-11.0561381],[-74.5341406,-11.0502881],[-74.5329106,-11.0456836],[-74.5315058,-11.0146976],[-74.5313083,-11.0103402],[-74.5311327,-11.006467],[-74.5311107,-11.0059829],[-74.5305209,-11.0062946],[-74.5258024,-11.0087884],[-74.520494,-11.011594],[-74.4827458,-11.0315448],[-74.4766928,-11.0349935],[-74.466017,-11.0426324],[-74.4587252,-11.0487322],[-74.4110667,-11.0898921],[-74.4042229,-11.096031],[-74.3971308,-11.1039817],[-74.3951096,-11.1077812],[-74.386032,-11.130227],[-74.3851006,-11.1335674],[-74.3867277,-11.1378445],[-74.3896928,-11.1398506],[-74.4117868,-11.1516223],[-74.414953,-11.1538892],[-74.418189,-11.1602523],[-74.4190677,-11.1659394],[-74.4228614,-11.2050727],[-74.4233949,-11.2105759],[-74.4238691,-11.2154675],[-74.4239284,-11.216079],[-74.4245027,-11.216161],[-74.4290972,-11.2168172],[-74.434266,-11.2175555],[-74.4710219,-11.2228054],[-74.4768306,-11.2240747],[-74.4865446,-11.228979],[-74.4928783,-11.2338401],[-74.5338342,-11.2678247],[-74.5401004,-11.2728006],[-74.5492741,-11.2786235],[-74.554475,-11.2809262],[-74.586909,-11.2935249],[-74.5914701,-11.2952965],[-74.5955243,-11.2968714],[-74.5960311,-11.2970682],[-74.5964408,-11.2967332],[-74.5997179,-11.2940531],[-74.6034047,-11.291038],[-74.6296218,-11.2695973],[-74.6339129,-11.2669542],[-74.6420248,-11.2672504],[-74.6478736,-11.2702636],[-74.6865518,-11.2940735],[-74.6919909,-11.2974217],[-74.6968256,-11.300398],[-74.69743,-11.30077],[-74.6978963,-11.3007836]]]}},{"type":"Feature","properties":{"ubigeo_distrito":"120607","distrito":"RIO NEGRO","provincia":"SATIPO","departamento":"JUNIN","territorio":"NORVRAEM"},"geometry":{"type":"Polygon","coordinates":[[[-74.8547807,-11.1475705],[-74.8459855,-11.1410945],[-74.8360909,-11.133809],[-74.7657292,-11.082001],[-74.7556716,-11.0742135],[-74.75504632474406,-11.073563898749853],[-74.74593998413746,-11.067429978939735],[-74.74300618147088,-11.058394169122527],[-74.7430061,-11.058394],[-74.7325747,-11.0262663],[-74.7302856,-11.0216665],[-74.7224041,-11.0169961],[-74.71484162257887,-11.015757852817663],[-74.64742098404571,-11.009049603885373],[-74.64323120151498,-11.003443681447234],[-74.6429489,-11.0031645],[-74.627048,-10.9822398],[-74.6248119,-10.9792973],[-74.6228243,-10.9766817],[-74.6225759,-10.9763547],[-74.6222958,-10.976294],[-74.6200554,-10.975808],[-74.617535,-10.9752614],[-74.5996121,-10.9713738],[-74.596457,-10.9711842],[-74.5891398,-10.9735544],[-74.5831483,-10.9767069],[-74.5425336,-10.9995564],[-74.5368222,-11.0027696],[-74.5317453,-11.0056258],[-74.5311107,-11.0059829],[-74.5311327,-11.006467],[-74.5313083,-11.0103402],[-74.5315058,-11.0146976],[-74.5329106,-11.0456836],[-74.5341406,-11.0502881],[-74.5425759,-11.0561381],[-74.5518899,-11.0588462],[-74.6179671,-11.0746608],[-74.627476,-11.0771947],[-74.6374697,-11.0816517],[-74.6404529,-11.0846891],[-74.6543251,-11.1045309],[-74.6560288,-11.1083067],[-74.6557866,-11.1186714],[-74.6537802,-11.1278514],[-74.6379706,-11.1909273],[-74.6360424,-11.2000791],[-74.6364265,-11.2102179],[-74.6388349,-11.2137396],[-74.6577176,-11.2317743],[-74.6607743,-11.2342492],[-74.6663448,-11.2360137],[-74.6702514,-11.2357443],[-74.6959332,-11.2318249],[-74.6999891,-11.2307714],[-74.7067543,-11.2262628],[-74.711155,-11.2216804],[-74.739595,-11.1895304],[-74.7443491,-11.1852085],[-74.7539419,-11.1827831],[-74.7611789,-11.1840733],[-74.8094817,-11.1968202],[-74.8166024,-11.1980924],[-74.8252653,-11.1955238],[-74.8289732,-11.1910407],[-74.8499737,-11.1577445],[-74.8529269,-11.1530623],[-74.855552,-11.1489002],[-74.8558801,-11.14838],[-74.8547807,-11.1475705]]]}},{"type":"Feature","properties":{"ubigeo_distrito":"120608","distrito":"RIO TAMBO","provincia":"SATIPO","departamento":"JUNIN","territorio":"NORVRAEM"},"geometry":{"type":"Polygon","coordinates":[[[-74.5317453,-11.0056258],[-74.5368222,-11.0027696],[-74.5425336,-10.9995564],[-74.5831483,-10.9767069],[-74.5891398,-10.9735544],[-74.596457,-10.9711842],[-74.5996121,-10.9713738],[-74.617535,-10.9752614],[-74.6200554,-10.975808],[-74.6222958,-10.976294],[-74.6225759,-10.9763547],[-74.62285733514194,-10.976183480275777],[-74.62261798402263,-10.975863228854484],[-74.624011322851,-10.97548141636173],[-74.6260553,-10.9742379],[-74.6295348,-10.972121],[-74.6542779,-10.9570678],[-74.6581194,-10.9549762],[-74.6641085,-10.9532966],[-74.6677534,-10.9532888],[-74.6909234,-10.9549053],[-74.694209,-10.954358],[-74.697324,-10.9483627],[-74.69793206761133,-10.941416270001083],[-74.69968178092726,-10.891836285958506],[-74.6994191,-10.8847566],[-74.6955677,-10.8776934],[-74.6910162,-10.8759448],[-74.6584558,-10.8690187],[-74.6535251,-10.8684203],[-74.6466394,-10.8705589],[-74.642963,-10.8738306],[-74.63662364086133,-10.880594838296394],[-74.61410248401468,-10.904625478788121],[-74.58039412589271,-10.91116626906139],[-74.5760487,-10.9122611],[-74.5675912,-10.915915],[-74.5613651,-10.9193876],[-74.53327724098882,-10.935775518407237],[-74.52001346811655,-10.94351431662653],[-74.5141157,-10.9473639],[-74.5082826,-10.9540356],[-74.50688929555118,-10.958525192109066],[-74.50338107802314,-10.977834596313588],[-74.5015755,-10.9877727],[-74.50157545028594,-10.987772861413202],[-74.50008098390849,-10.995998478873222],[-74.49024032384214,-10.997592194025406],[-74.4902403,-10.9975922],[-74.4552512,-11.0032588],[-74.4496133,-11.0045723],[-74.4394992,-11.0094142],[-74.4324944,-11.0141531],[-74.3865708,-11.0472218],[-74.38657051368678,-11.047221960124826],[-74.37365473379074,-11.056522353929575],[-74.30892608422145,-11.035373152071859],[-74.2775354,-11.0251167],[-74.2664361,-11.0216841],[-74.2526616,-11.0187354],[-74.24654304556503,-11.018482106026054],[-74.20147460863036,-11.019663728895253],[-74.09554827673065,-10.987943525904141],[-74.0845752,-10.9875089],[-74.0762502935899,-10.987962469588973],[-74.04634307490052,-10.990173271216824],[-74.0210287,-10.9920446],[-74.0129958,-10.993387],[-74.0039527,-11.0000445],[-74.0006815,-11.0070239],[-73.99462360982179,-11.024419035983563],[-73.98355459134837,-11.056203672013652],[-73.9811422,-11.0636234],[-73.9789641,-11.0738181],[-73.9786545,-11.07914],[-73.97853633658316,-11.091945030969079],[-73.97827173342243,-11.120626978989277],[-73.96715063785695,-11.124672437362078],[-73.9671505,-11.1246725],[-73.9276084,-11.1390565],[-73.9217705,-11.141349],[-73.9146086,-11.1453054],[-73.9114943,-11.1479584],[-73.8937415,-11.1652255],[-73.8909705,-11.1674081],[-73.8865558,-11.1676024],[-73.8838084,-11.1656626],[-73.8662437,-11.1499495],[-73.8638263,-11.1466581],[-73.86362083123521,-11.145428264044424],[-73.86130360831343,-11.14553022901247],[-73.86475400143199,-11.074702273836484],[-73.8656249,-11.0568248],[-73.8659746,-11.0462643],[-73.8653991,-11.0310144],[-73.8643301,-11.0225124],[-73.8563537,-10.9697464],[-73.854925,-10.9619879],[-73.8514717,-10.9526855],[-73.8485838,-10.948816],[-73.8470665340118,-10.947144050095561],[-73.8234072332781,-10.921072728803427],[-73.81836989215694,-10.854654752710555],[-73.8158711,-10.8217082],[-73.8144738,-10.8101624],[-73.8091773,-10.795349],[-73.8039538,-10.788378],[-73.77372298735857,-10.754448892431022],[-73.76746300444404,-10.747423110328915],[-73.7617215,-10.7420352],[-73.7522796,-10.7398859],[-73.74621921740395,-10.742586913969848],[-73.707578179434,-10.766101087984506],[-73.7071744,-10.7663468],[-73.7008258,-10.7704235],[-73.6890815,-10.779277],[-73.6807497,-10.7862673],[-73.6258397,-10.8333358],[-73.62583958676761,-10.833335893077184],[-73.6103962330795,-10.846573853734071],[-73.59015935350936,-10.852239229418517],[-73.5692857,-10.8580829],[-73.5648859,-10.8603209],[-73.5617735,-10.8692425],[-73.5622828,-10.8781564],[-73.5694697,-10.9405465],[-73.56946975360198,-10.940547218177333],[-73.5714909830432,-10.958093728837918],[-73.56628699590124,-10.974172590717634],[-73.5662868,-10.9741733],[-73.55903520214264,-10.996578601156095],[-73.54257873301621,-11.047424478921112],[-73.5317834087604,-11.050631608341304],[-73.5317832,-11.0506317],[-73.51595654541389,-11.055333532791668],[-73.48644790688117,-11.064100108074214],[-73.4832032,-11.0650641],[-73.48283479875431,-11.065173508473997],[-73.48260349709179,-11.065242224739418],[-73.4825293,-11.0658734],[-73.481936,-11.0709225],[-73.4812684,-11.0766027],[-73.4765215,-11.1169954],[-73.4756031,-11.1236396],[-73.4730027,-11.1364001],[-73.4706707,-11.1457067],[-73.4546144,-11.2073986],[-73.4524566,-11.2168537],[-73.4512505,-11.2308021],[-73.4519007,-11.2387826],[-73.45217301858368,-11.24090319480044],[-73.4583082999893,-11.28867945909642],[-73.459449,-11.2958611],[-73.4621681,-11.3034287],[-73.4644261,-11.3057052],[-73.4797716,-11.3163501],[-73.47977165492755,-11.316350160064323],[-73.48408748296166,-11.31934397917434],[-73.4809233240624,-11.322520740512543],[-73.4807581,-11.3235642],[-73.4779083,-11.328117],[-73.4559378,-11.35931],[-73.4525481,-11.363855],[-73.4474011,-11.3690226],[-73.444357,-11.3709369],[-73.4251511,-11.3810843],[-73.4224503,-11.3825113],[-73.4200496,-11.3837797],[-73.41974952536218,-11.383938186604775],[-73.41974950490193,-11.383938207146514],[-73.4203492,-11.3848125],[-73.4251465,-11.3918065],[-73.4305435,-11.3996748],[-73.4689222,-11.4556272],[-73.46892227640821,-11.45562732703121],[-73.47971623295757,-11.4713638543159],[-73.47431832029314,-11.48226803884509],[-73.4743183,-11.4822681],[-73.4551256,-11.5210388],[-73.4535258,-11.5270921],[-73.4599206,-11.536747],[-73.4695138,-11.5427625],[-73.49430376769298,-11.556318067741442],[-73.55965098303216,-11.592050979428304],[-73.58504358596512,-11.62762310774815],[-73.5995183,-11.6479005],[-73.59951838061313,-11.647900637152324],[-73.60826960807752,-11.660160104491741],[-73.60218773914046,-11.673477387551625],[-73.6021877,-11.6734775],[-73.59765492105748,-11.683402761165338],[-73.58056282137427,-11.720828810941219],[-73.5775524,-11.7285102],[-73.5750913,-11.7426162],[-73.57502550534534,-11.752565691676452],[-73.57750510804881,-11.836484729655934],[-73.56185024458135,-11.843987988979608],[-73.5618499,-11.8439882],[-73.53837570591043,-11.855239160317998],[-73.5061855646929,-11.870667654965864],[-73.4978653,-11.8750791],[-73.4869556,-11.8836963],[-73.48164043429854,-11.890055519678377],[-73.47052241502976,-11.904917236304945],[-73.4500264,-11.9323148],[-73.4455463,-11.9387118],[-73.4413193,-11.9476287],[-73.4405157,-11.9523778],[-73.4383137,-11.9814541],[-73.438313649778,-11.981454412344215],[-73.43769435791835,-11.989631854798581],[-73.41291328651495,-12.009123072092924],[-73.4050506,-12.0153074],[-73.4015658,-12.0185759],[-73.3991653,-12.0246845],[-73.39964957732379,-12.029051595511378],[-73.40768910789032,-12.065989729869662],[-73.38121016670297,-12.10644372801561],[-73.3701317,-12.1233692],[-73.3668512,-12.1299102],[-73.369921,-12.1374542],[-73.3770385,-12.1403431],[-73.4309094,-12.1559107],[-73.43090956006633,-12.155910757088236],[-73.44606060792616,-12.160289104957476],[-73.45700738179687,-12.187984466634672],[-73.4654027,-12.2092246],[-73.4685724,-12.2151643],[-73.4788336,-12.2244885],[-73.4884905,-12.2302041],[-73.52893560799085,-12.252179658901445],[-73.57432635804585,-12.276842355066027],[-73.57723134568666,-12.294860491858577],[-73.5772314,-12.2948607],[-73.58080443974683,-12.317022547436638],[-73.58756083273255,-12.358928960851683],[-73.5891458,-12.3680355],[-73.5915005,-12.376847],[-73.59159436406507,-12.376978661304044],[-73.62801280186353,-12.378089309520485],[-73.6371536,-12.3747362],[-73.64018524502882,-12.373624075708374],[-73.65005293489877,-12.358199017969415],[-73.6612749,-12.3302943],[-73.6635463,-12.3251794],[-73.6686128,-12.3168482],[-73.6726744,-12.3115491],[-73.7001006,-12.2774871],[-73.7042487,-12.272686],[-73.7052321305988,-12.271943542688032],[-73.70781423317035,-12.267907230057714],[-73.72023991815513,-12.267429319096763],[-73.731698,-12.2669886],[-73.7349689,-12.2664229],[-73.7424953,-12.2626141],[-73.7486323,-12.2584188],[-73.76750814430689,-12.244908550239117],[-73.80189398325805,-12.22029710501337],[-73.80933787434923,-12.223740935116885],[-73.8093381,-12.223741],[-73.82265926397298,-12.229903921926477],[-73.83580623974846,-12.235986218186756],[-73.8403338,-12.2375612],[-73.8500892,-12.2379174],[-73.8577556,-12.2367874],[-73.88922946697366,-12.231053761137092],[-73.92383685837173,-12.224749230017514],[-73.95352391799776,-12.234103526690228],[-73.970261,-12.2393773],[-73.9753563,-12.2409828],[-73.97818587633581,-12.241874430165698],[-73.98045160842446,-12.242588355034144],[-73.98045164259322,-12.2425883672999],[-73.9807745,-12.2423405],[-73.9833578,-12.2403574],[-73.9862641,-12.2381264],[-74.0069305,-12.2222615],[-74.0099843,-12.2195923],[-74.0137477,-12.2141042],[-74.0153983,-12.2099131],[-74.0248394,-12.1818726],[-74.0264855,-12.1779064],[-74.030213,-12.1742176],[-74.0332262,-12.1735727],[-74.053605,-12.1721025],[-74.0565379,-12.1712061],[-74.0596231,-12.165505],[-74.0605465,-12.1592751],[-74.0648486,-12.1151367],[-74.0653419,-12.1080883],[-74.0649861,-12.0958394],[-74.0640481,-12.0875768],[-74.0568994,-12.0337246],[-74.0555071,-12.025893],[-74.0515176,-12.0170917],[-74.0479229,-12.0139217],[-74.0231552,-11.9973635],[-74.0193692,-11.9944462],[-74.0138491,-11.9876659],[-74.0107349,-11.9821078],[-73.9913418,-11.9444236],[-73.9886146,-11.9391243],[-73.9861905,-11.9344138],[-73.9858875,-11.933825],[-73.985273,-11.9333212],[-73.980357,-11.929291],[-73.9748265,-11.924757],[-73.9354985,-11.8925152],[-73.9303924,-11.8875615],[-73.9288721,-11.8801733],[-73.9320777,-11.8758919],[-73.9592428,-11.8490284],[-73.9629659,-11.8449601],[-73.9655854,-11.8392765],[-73.9651367,-11.8362404],[-73.9589278,-11.8176353],[-73.9582617,-11.8144678],[-73.9591419,-11.8077333],[-73.9609083,-11.8024826],[-73.9741592,-11.7672116],[-73.976485,-11.7616257],[-73.9818404,-11.7522099],[-73.986209,-11.746026],[-74.015802,-11.7059705],[-74.0199796,-11.699607],[-74.0238076,-11.6887545],[-74.024415,-11.6815524],[-74.0254461,-11.6347881],[-74.0260005,-11.6277679],[-74.0294041,-11.6183706],[-74.0331044,-11.6136443],[-74.0593027,-11.5852308],[-74.0629298,-11.5805813],[-74.0657484,-11.571799],[-74.0656446,-11.5654705],[-74.0619952,-11.5236254],[-74.062707,-11.5162776],[-74.0720501,-11.4993403],[-74.0830174,-11.4855165],[-74.1614122,-11.3918632],[-74.1728,-11.3781488],[-74.1855074,-11.3620867],[-74.190004,-11.3557235],[-74.213269,-11.32088],[-74.2167649,-11.3149039],[-74.2214674,-11.3019386],[-74.2238497,-11.2917082],[-74.238205,-11.2228297],[-74.2401071,-11.2127542],[-74.2409684,-11.2010289],[-74.2401429,-11.1964478],[-74.2326776,-11.1715239],[-74.2324834,-11.1679207],[-74.2383947,-11.1640186],[-74.2459782,-11.1627441],[-74.3007346,-11.1564509],[-74.3092131,-11.1561638],[-74.3222846,-11.1601601],[-74.3301455,-11.1654425],[-74.379961,-11.2037055],[-74.3872659,-11.2091024],[-74.3958893,-11.2140142],[-74.3993638,-11.2147571],[-74.4185361,-11.2157888],[-74.4212323,-11.2159339],[-74.4236288,-11.2160629],[-74.4239284,-11.216079],[-74.4238691,-11.2154675],[-74.4233949,-11.2105759],[-74.4228614,-11.2050727],[-74.4190677,-11.1659394],[-74.418189,-11.1602523],[-74.414953,-11.1538892],[-74.4117868,-11.1516223],[-74.3896928,-11.1398506],[-74.3867277,-11.1378445],[-74.3851006,-11.1335674],[-74.386032,-11.130227],[-74.3951096,-11.1077812],[-74.3971308,-11.1039817],[-74.4042229,-11.096031],[-74.4110667,-11.0898921],[-74.4587252,-11.0487322],[-74.466017,-11.0426324],[-74.4766928,-11.0349935],[-74.4827458,-11.0315448],[-74.520494,-11.011594],[-74.5258024,-11.0087884],[-74.5305209,-11.0062946],[-74.5311107,-11.0059829],[-74.5317453,-11.0056258]]]}},{"type":"Feature","properties":{"ubigeo_distrito":"250202","distrito":"SEPAHUA","provincia":"ATALAYA","departamento":"UCAYALI","territorio":"NORVRAEM"},"geometry":{"type":"Polygon","coordinates":[[[-73.4824523,-11.0648148],[-73.4812428,-11.0613953],[-73.479882,-11.0575483],[-73.4702058,-11.030192],[-73.4677531,-11.026537],[-73.4578081,-11.0246525],[-73.4478294,-11.0259521],[-73.377945,-11.0382328],[-73.367777,-11.0396114],[-73.3563176,-11.0383595],[-73.3521614,-11.035416],[-73.3303708,-11.0131203],[-73.3271318,-11.0090826],[-73.3230103,-10.999077],[-73.3210975,-10.9906076],[-73.309916,-10.9328583],[-73.3085109,-10.9239789],[-73.3084517,-10.9106922],[-73.3097827,-10.9029635],[-73.32049,-10.8544199],[-73.3218691,-10.8472186],[-73.3221939,-10.838152],[-73.3212208,-10.8340201],[-73.3131119,-10.8100311],[-73.3111606,-10.806382],[-73.3036594,-10.8011778],[-73.2962342,-10.7983217],[-73.2443334,-10.7806773],[-73.235614,-10.7784227],[-73.2177594,-10.7780298],[-73.2041605,-10.7797933],[-73.1132243,-10.7942946],[-73.0999434,-10.7963377],[-73.0846328,-10.7981813],[-73.0787754,-10.7984427],[-73.0472267,-10.7986901],[-73.0424589,-10.7990405],[-73.0358653,-10.8015958],[-73.0323911,-10.8044397],[-73.011191,-10.8246351],[-73.0076809,-10.8270763],[-73.0008005,-10.8264104],[-72.99571,-10.8231369],[-72.9618666,-10.7976143],[-72.9562775,-10.7938215],[-72.945408,-10.7890016],[-72.9374102,-10.7867695],[-72.8842977,-10.7737325],[-72.8765312,-10.7720944],[-72.8675115,-10.7720265],[-72.8640033,-10.7735797],[-72.8449577,-10.7860734],[-72.8417047,-10.7875812],[-72.8347263,-10.78715],[-72.8292563,-10.7851031],[-72.7924748,-10.7691597],[-72.78723,-10.7667036],[-72.7820531,-10.7629978],[-72.7808268,-10.7608218],[-72.7761931,-10.7471195],[-72.774803,-10.7448065],[-72.7683157,-10.7400046],[-72.7615967,-10.7363153],[-72.7143321,-10.7116027],[-72.7072532,-10.708236],[-72.6978866,-10.7060152],[-72.6932572,-10.7066059],[-72.6655884,-10.7135522],[-72.6612059,-10.7149427],[-72.6538147,-10.7191204],[-72.6489581,-10.7229521],[-72.6174969,-10.7494275],[-72.6125451,-10.7532186],[-72.6043912,-10.7570716],[-72.5991507,-10.7580967],[-72.5653808,-10.7624452],[-72.5599165,-10.7633419],[-72.5499725,-10.7661672],[-72.5430066,-10.7688021],[-72.497224,-10.7870557],[-72.4903144,-10.7901266],[-72.4808207,-10.7964403],[-72.47586363771032,-10.801260879847716],[-72.45774752454062,-10.820631356569022],[-72.4456956,-10.8335178],[-72.4413949,-10.8384259],[-72.4371568,-10.8454344],[-72.43616,-10.8492869],[-72.432423,-10.8730988],[-72.4315844,-10.8769475],[-72.4286127,-10.8839254],[-72.4257367,-10.8887991],[-72.4057001,-10.9208107],[-72.4020848,-10.925817],[-72.40156791248708,-10.926284601131007],[-72.40006485694502,-10.929813978811188],[-72.34563235392801,-10.964250804065674],[-72.3346551,-10.9711956],[-72.3346548329998,-10.971195753295985],[-72.32029685686967,-10.980279353858078],[-72.29372840287071,-10.976349850023817],[-72.2725969,-10.9732245],[-72.2668431,-10.9728662],[-72.2580412,-10.9755062],[-72.2527927,-10.9791646],[-72.23535312854798,-10.993157173608802],[-72.21027335676561,-11.013279853888651],[-72.18693190133489,-11.010364503870829],[-72.184306,-11.01039],[-72.1815137,-11.0128687],[-72.18064951598168,-11.015941543172728],[-72.17652814907508,-11.038047049307526],[-72.1760436,-11.0413707],[-72.1762881,-11.0458575],[-72.1770784,-11.0481421],[-72.18059514980897,-11.056121956164027],[-72.18486498174153,-11.06581047893752],[-72.16160773563804,-11.080957718500144],[-72.1328288,-11.0997012],[-72.127359,-11.1038405],[-72.124214,-11.1105034],[-72.1243041035034,-11.110748745526811],[-72.16130902424757,-11.156823589524889],[-72.1751448,-11.1636078],[-72.1785787,-11.1655854],[-72.1829537,-11.1700814],[-72.1849885,-11.1737237],[-72.1968923,-11.1983662],[-72.1985457,-11.2023955],[-72.19872190560815,-11.203406385475864],[-72.200240231756,-11.205296854067436],[-72.19986999996662,-11.2154486974802],[-72.19987,-11.2154489],[-72.1985536,-11.2515449],[-72.1985633,-11.2570057],[-72.1999572,-11.2645965],[-72.2016899,-11.2686241],[-72.2141576,-11.2932545],[-72.21415761649115,-11.293254539999298],[-72.21766410677242,-11.30018172915584],[-72.21531688355462,-11.308686504131376],[-72.2153168,-11.3086869],[-72.20840620682743,-11.333726197863],[-72.20697068700318,-11.338927566435718],[-72.2061434,-11.3431564],[-72.2078709,-11.3467468],[-72.2108577,-11.3470058],[-72.22331394473458,-11.346152827307879],[-72.23302464598108,-11.345487853850955],[-72.2365556,-11.3451894],[-72.23988299130784,-11.344713660027452],[-72.30770898185762,-11.30699997916233],[-72.37883010692482,-11.332638729186295],[-72.38716347906438,-11.339091413654257],[-72.3871636,-11.3390915],[-72.39231807689372,-11.34308271427001],[-72.41679429627715,-11.362035104491497],[-72.4215078,-11.3654503],[-72.4295908,-11.3698329],[-72.4349805,-11.3718953],[-72.4700147,-11.3840126],[-72.47001488975657,-11.38401267552304],[-72.47986810702017,-11.387420604237432],[-72.48980693307,-11.395999102126265],[-72.4898073,-11.3959994],[-72.5251465,-11.4265017],[-72.5308651,-11.4307227],[-72.5412746,-11.4339881],[-72.5485679,-11.4338489],[-72.5965051,-11.4294699],[-72.6034677,-11.4286358],[-72.6112308,-11.4263414],[-72.6139721,-11.4243076],[-72.6281396,-11.4103316],[-72.62813971945064,-11.410331503350903],[-72.63212423216363,-11.406400854255223],[-72.66757613570363,-11.394543963428625],[-72.6931627,-11.3859865],[-72.7001788,-11.3834052],[-72.7086678,-11.3786875],[-72.71226280761907,-11.37537196965112],[-72.72742716266208,-11.359058783511967],[-72.7325359,-11.353563],[-72.73253595308583,-11.353562958012494],[-72.73823760726343,-11.347429354200365],[-72.74832749290358,-11.354064229507339],[-72.7483278,-11.3540644],[-72.76386620418349,-11.364282126463758],[-72.78420406612545,-11.377655833838434],[-72.7902762,-11.3807096],[-72.8029787,-11.3815493],[-72.81278435068148,-11.379545130519098],[-72.82561089432852,-11.376253166408148],[-72.8785285,-11.3626717],[-72.8883226,-11.360026],[-72.9009318,-11.3557331],[-72.9068991,-11.3530127],[-72.9252026365063,-11.343910429773235],[-72.94202883535048,-11.335542794965255],[-72.9468407,-11.3326008],[-72.9502093,-11.3265329],[-72.94960783845575,-11.321890596815742],[-72.939126107452,-11.282077854139564],[-72.9632813234331,-11.267353381419086],[-72.9661432,-11.2650841],[-72.9701863,-11.2584216],[-72.9723782,-11.2523628],[-72.98587,-11.2105552],[-72.98587016004336,-11.21055483084359],[-72.98966460749936,-11.198796854062017],[-72.99629626412717,-11.210548102628607],[-72.9962966,-11.2105486],[-73.0198769,-11.2523328],[-73.0243015,-11.2585056],[-73.0361183,-11.2661037],[-73.0464647,-11.2694285],[-73.09630672212991,-11.282775644768211],[-73.11741958577616,-11.28842941934766],[-73.1280558,-11.2910633],[-73.1421992,-11.2931358],[-73.1492412,-11.2930922],[-73.191434,-11.2906712],[-73.19143524297085,-11.290671178268935],[-73.20330073269935,-11.289990354146976],[-73.23866670725054,-11.304829432415318],[-73.2476996,-11.3086195],[-73.2533115,-11.3106497],[-73.2635539,-11.3123517],[-73.270745,-11.3124489],[-73.28491390410291,-11.312171971985503],[-73.331330607819,-11.311264729166817],[-73.39257098758598,-11.36159960097992],[-73.4038341,-11.370857],[-73.4117918,-11.3773976],[-73.41862502539965,-11.383014011840114],[-73.41888445531538,-11.383227243234211],[-73.4197495,-11.3839382],[-73.41974952536218,-11.383938186604775],[-73.4809233240624,-11.322520740512543],[-73.4815862,-11.3183344],[-73.47977165492755,-11.316350160064323],[-73.46011023293927,-11.302711354158843],[-73.4583082999893,-11.28867945909642],[-73.4583081,-11.2886782],[-73.45217301858368,-11.24090319480044],[-73.45009860792992,-11.224749479086228],[-73.48260348296024,-11.065242228937686],[-73.48260349709179,-11.065242224739418],[-73.4826035,-11.0652422],[-73.4824523,-11.0648148]]]}}]}