{"type":"FeatureCollection","features":[{"type":"Feature","properties":{"ubigeo_provincia":"2502","provincia":"ATALAYA","departamento":"UCAYALI","territorios":["NORVRAEM"]},"geometry":{"type":"Polygon","coordinates":[[[-72.18180860673868,-11.0097246038853],[-72.17536910673256,-11.044263728917446],[-72.18486498174153,-11.06581047893752],[-72.1214062316814,-11.107140603975898],[-72.200240231756,-11.205296854067436],[-72.198183356754,-11.261696854119975],[-72.21766410677242,-11.30018172915584],[-72.20462335676005,-11.347432729199811],[-72.23925835679285,-11.345060979197648],[-72.30770898185762,-11.30699997916233],[-72.37883010692482,-11.332638729186295],[-72.42512710696852,-11.368487354219724],[-72.47986810702017,-11.387420604237432],[-72.53508560707222,-11.435080479281861],[-72.6099874821428,-11.428238354275534],[-72.63212423216363,-11.406400854255223],[-72.70656135723364,-11.381505354232067],[-72.73823760726343,-11.347429354200365],[-72.7942939823161,-11.38429072923471],[-72.89701898241249,-11.357926104210184],[-72.95190860746398,-11.330629604184779],[-72.939126107452,-11.282077854139564],[-72.96858360747962,-11.264121229122859],[-72.98966460749936,-11.198796854062017],[-73.02650885753387,-11.26408460412282],[-73.13737448263765,-11.293773104150501],[-73.20330073269935,-11.289990354146976],[-73.25744573274996,-11.31270885416815],[-73.331330607819,-11.311264729166817],[-73.41974948290158,-11.383938229234493],[-73.48408748296166,-11.31934397917434],[-73.46011023293927,-11.302711354158843],[-73.45009860792992,-11.224749479086228],[-73.48260348296024,-11.065242228937686],[-73.54257873301621,-11.047424478921112],[-73.5714909830432,-10.958093728837918],[-73.56026148303272,-10.860609228747126],[-73.6103962330795,-10.846573853734071],[-73.6961931081595,-10.773029228665553],[-73.75720010821641,-10.73590472863101],[-73.81421685826955,-10.79989647869059],[-73.8234072332781,-10.921072728803427],[-73.85411035830674,-10.954905978834947],[-73.86657348331835,-11.037352853911724],[-73.86130360831343,-11.14553022901247],[-73.91648723336485,-11.14310197901021],[-73.97827173342243,-11.120626978989277],[-73.97873848342287,-11.070033103942157],[-74.0054982334478,-10.993192603870618],[-74.09177835852817,-10.986814603864666],[-74.20147460863036,-11.019663728895253],[-74.25643598368156,-11.018222728893917],[-74.37365473379074,-11.056522353929575],[-74.44541048385757,-11.004852478881471],[-74.50008098390849,-10.995998478873222],[-74.50838373391623,-10.950299728830647],[-74.5729951089764,-10.91260197879554],[-74.51004098391775,-10.88034960376551],[-74.48492223389438,-10.836456353724635],[-74.38568073380193,-10.811767353701642],[-74.37426910879131,-10.758109478651681],[-74.31730560873825,-10.726707228622416],[-74.28113473370456,-10.674858853574138],[-74.22985148365679,-10.635495353537497],[-74.16496035859635,-10.63844960354025],[-74.1326734835663,-10.604910853508994],[-74.18178835861201,-10.504043228415059],[-74.21873423364646,-10.4521128533667],[-74.2551796086804,-10.452479103367056],[-74.27671098370045,-10.37407422829402],[-74.22434198365168,-10.279230478205696],[-74.23166060865849,-10.185051603117996],[-74.3039374837258,-10.163594978098002],[-74.32775523374801,-10.109652728047791],[-74.36696673378452,-10.112896478050791],[-74.40060810881585,-10.070518978011332],[-74.42403460883767,-9.98944260293583],[-74.41232623382675,-9.95395510290276],[-74.33306773375296,-9.860098102815359],[-74.31695898373795,-9.801581977760854],[-74.25341810867876,-9.771726602733045],[-74.18398173361408,-9.763799352725664],[-74.15240448358466,-9.709681102675296],[-74.06579498350398,-9.705536852671427],[-74.04755073348699,-9.655833977625115],[-73.95975385840518,-9.610787102583178],[-73.8755408583267,-9.596558602569925],[-73.82096160827584,-9.531970727509757],[-73.7433906082035,-9.540347602517585],[-73.68452548314863,-9.529840602507793],[-73.60918648307836,-9.644408352614477],[-73.57007685804186,-9.657448477626644],[-73.53777935801175,-9.707669977673381],[-73.46937598294791,-9.750780102713538],[-73.45934873293854,-9.795609602755281],[-73.39347260787703,-9.822573477780422],[-73.35523885784131,-9.872702227827084],[-73.30922098279834,-9.892989852845975],[-73.21930460771429,-9.99931172794498],[-73.15274435765205,-10.03952960298243],[-73.11252860761441,-10.01775485296215],[-73.09318360759632,-9.949542477898628],[-73.1032002326057,-9.875227352829416],[-73.22848685772287,-9.846510977802698],[-73.21775773271285,-9.827471852784955],[-73.24293235773638,-9.731095227695208],[-73.27340185776487,-9.664594102633275],[-73.22713998272162,-9.656846727626046],[-73.2124751077079,-9.574153352549036],[-73.18962885768654,-9.526796727504934],[-73.20616998270202,-9.484320352465389],[-73.20043948269665,-9.41139647739748],[-72.71691210724359,-9.412185602398099],[-72.69770173222553,-9.435962352420235],[-72.64225460717343,-9.442316852426124],[-72.53039698206823,-9.48230972746333],[-72.4070624819521,-9.47729110245855],[-72.34082360688967,-9.50659510248576],[-72.31798410686814,-9.544138102520726],[-72.28132623183359,-9.542298852518954],[-72.28832223184014,-9.602816352575324],[-72.24601760680022,-9.657279352625965],[-72.25899410681244,-9.712191352677143],[-72.21486910677075,-9.778816352739113],[-72.1513611067108,-9.797416352756338],[-72.16205623172087,-9.831068227787691],[-72.15071173171009,-9.905741852857231],[-72.17388810673198,-9.930192602880018],[-72.18040435673807,-9.999671852944719],[-72.1893534817465,-10.020873102964474],[-72.14657435670603,-10.09846247803666],[-72.1569524817158,-10.165256853098898],[-72.21413335676984,-10.159707853093812],[-72.24254848179663,-10.18880972812096],[-72.33609598188495,-10.179478728112384],[-72.381767231928,-10.22249647815248],[-72.44472148198736,-10.255042478182869],[-72.47305635701406,-10.301707353226357],[-72.47819523201886,-10.36770847828781],[-72.4224488569663,-10.44647222836111],[-72.40788510695255,-10.517047728426823],[-72.38080235692699,-10.537832228446149],[-72.4060971069508,-10.64946222855012],[-72.44336985698598,-10.636491978538087],[-72.48434760702456,-10.792189478683111],[-72.43721098198009,-10.842589853730004],[-72.40006485694502,-10.929813978811188],[-72.32029685686967,-10.980279353858078],[-72.26212623181469,-10.971675853849995],[-72.21027335676561,-11.013279853888651],[-72.18180860673868,-11.0097246038853]]]}},{"type":"Feature","properties":{"ubigeo_provincia":"0306","provincia":"CHINCHEROS","departamento":"APURIMAC","territorios":["VRAEM"]},"geometry":{"type":"Polygon","coordinates":[[[-73.44538985792552,-13.430359981140288],[-73.48346485796107,-13.506310606211006],[-73.49207560796911,-13.57732948127714],[-73.52844123300305,-13.615618106312779],[-73.57040298304223,-13.596258356294763],[-73.62896098309682,-13.736580106425436],[-73.67371348313856,-13.730739356420004],[-73.74361973320376,-13.655562481349993],[-73.79192085824879,-13.640959606336413],[-73.81424373326959,-13.509212481213714],[-73.83348798328753,-13.471785856178844],[-73.83802935829173,-13.384433606097497],[-73.82282023327755,-13.285052106004972],[-73.79702935825354,-13.199943355925692],[-73.75643960821569,-13.170714855898474],[-73.72622260818753,-13.268662105989717],[-73.64194923310896,-13.299478481018385],[-73.57175973304346,-13.34183398105783],[-73.4809101079587,-13.431371106141212],[-73.44538985792552,-13.430359981140288]]]}},{"type":"Feature","properties":{"ubigeo_provincia":"0905","provincia":"CHURCAMPA","departamento":"HUANCAVELICA","territorios":["VRAEM"]},"geometry":{"type":"Polygon","coordinates":[[[-74.32361998374415,-12.832509980583527],[-74.3962773588118,-12.806066355558892],[-74.4656073588764,-12.804886730557799],[-74.54245898394798,-12.743378855500513],[-74.5444277339498,-12.722841855481406],[-74.63990035903872,-12.645996105409811],[-74.68646285908208,-12.589855480357544],[-74.69205473408726,-12.521859355294218],[-74.59733235899907,-12.466094605242283],[-74.59729498399905,-12.410015605190056],[-74.5759899839792,-12.373169980155753],[-74.54842998395353,-12.375140105157586],[-74.50353998391172,-12.449809980227132],[-74.42244998383619,-12.44520998022284],[-74.41511998382937,-12.490659980265168],[-74.34081998376016,-12.63445998039909],[-74.32752998374778,-12.681269980442671],[-74.34876998376757,-12.712429980471688],[-74.28919998371208,-12.758009980514156],[-74.29239998371506,-12.824759980576315],[-74.32361998374415,-12.832509980583527]]]}},{"type":"Feature","properties":{"ubigeo_provincia":"1201","provincia":"HUANCAYO","departamento":"JUNIN","territorios":["VRAEM"]},"geometry":{"type":"Polygon","coordinates":[[[-74.72101460911423,-11.664661104495925],[-74.64254073404116,-11.700954104529727],[-74.64848935904669,-11.7378596045641],[-74.59669985899848,-11.818498104639215],[-74.57788860898096,-11.882384729698707],[-74.53600785894197,-11.878362979694948],[-74.48669535889603,-11.942206979754411],[-74.50764848391556,-11.987081979796201],[-74.54899948395406,-11.99699035480542],[-74.6591077340566,-11.995782479804308],[-74.71690010911043,-12.059419979863554],[-74.74860998413995,-12.041419979846799],[-74.83737360922264,-12.070818479874177],[-74.87077410925373,-12.06599197986967],[-74.93037423430924,-12.022858354829514],[-75.04705260941792,-12.01156360481898],[-75.07460660944356,-12.060146729864249],[-75.04832723441909,-12.170329729966861],[-75.07162785944078,-12.235202605027279],[-75.14022998450466,-12.342099980126822],[-75.13100998449609,-12.37849985516073],[-75.21525360957456,-12.39484273017594],[-75.21551535957481,-12.463421105239796],[-75.27835898463331,-12.467830480243919],[-75.36239123471158,-12.539600355310752],[-75.41785385976324,-12.628973730393978],[-75.49085423483122,-12.647937355411617],[-75.53874448487582,-12.621694230387208],[-75.57961323491386,-12.641484355405629],[-75.57184060990664,-12.564067855333537],[-75.53620110987345,-12.517275355289954],[-75.55958998489525,-12.410719980190715],[-75.4716099848133,-12.392279855173559],[-75.37665998472487,-12.339569980124484],[-75.31352685966608,-12.269804230059494],[-75.24444535960176,-12.241820355033438],[-75.26768910962339,-12.183168604978812],[-75.23184248459002,-12.120401854920356],[-75.23878623459647,-12.063067104866949],[-75.31851173467074,-12.041021479846426],[-75.33069473468207,-12.010312979817835],[-75.27920110963412,-11.980519479790097],[-75.31277535966537,-11.938003104750477],[-75.25070910960756,-11.80993560463121],[-75.17239848453464,-11.797658229619795],[-75.12928173449448,-11.842238854661328],[-75.09218698445993,-11.834144229653788],[-75.06248585943227,-11.888961104704826],[-75.01560373438862,-11.821251854641769],[-74.92148623430096,-11.846087104664909],[-74.8759946092586,-11.830151854650053],[-74.83860998422375,-11.762869979587409],[-74.7699999841599,-11.762349979586928],[-74.76532698415552,-11.707609729535935],[-74.72101460911423,-11.664661104495925]]]}},{"type":"Feature","properties":{"ubigeo_provincia":"0504","provincia":"HUANTA","departamento":"AYACUCHO","territorios":["AMUVRAEM","VRAEM"]},"geometry":{"type":"Polygon","coordinates":[[[-74.10399448353955,-12.982063230722805],[-74.16088473359255,-13.037535105774467],[-74.22873435865576,-13.01315235575176],[-74.27165148369573,-13.066972105801867],[-74.29655323371892,-12.93500873067899],[-74.31944998374027,-12.887279980634533],[-74.32361998374415,-12.832509980583527],[-74.29239998371506,-12.824759980576315],[-74.28919998371208,-12.758009980514156],[-74.34876998376757,-12.712429980471688],[-74.32752998374778,-12.681269980442671],[-74.34081998376016,-12.63445998039909],[-74.41511998382937,-12.490659980265168],[-74.42244998383619,-12.44520998022284],[-74.50353998391172,-12.449809980227132],[-74.54842998395353,-12.375140105157586],[-74.5759899839792,-12.373169980155753],[-74.58117698398404,-12.332669355118043],[-74.55211723395696,-12.287339855075825],[-74.44396923385624,-12.271973605061499],[-74.41628985883047,-12.304769980092068],[-74.38480998380112,-12.268629980058392],[-74.3888599838049,-12.192669979987649],[-74.34594560876494,-12.173736729970017],[-74.32187298374251,-12.229777105022206],[-74.27051573369468,-12.239144730030949],[-74.18761823361747,-12.314375980101003],[-74.12143948355585,-12.333601480118912],[-74.09835723353432,-12.284913605073564],[-73.98045160842446,-12.242588355034144],[-73.96585898341087,-12.336451355121568],[-73.88679248333717,-12.40539698018576],[-73.83077773328498,-12.53050810530227],[-73.85380273330645,-12.645472605409354],[-73.8881074833384,-12.711048855470413],[-73.98808785843156,-12.74986910550655],[-73.99568373343867,-12.83829385558892],[-74.14423648357706,-12.877754105625659],[-74.10399448353955,-12.982063230722805]]]}},{"type":"Feature","properties":{"ubigeo_provincia":"0809","provincia":"LA CONVENCION","departamento":"CUSCO","territorios":["AMUVRAEM"]},"geometry":{"type":"Polygon","coordinates":[[[-73.83077773328498,-12.53050810530227],[-73.88679248333717,-12.40539698018576],[-73.96585898341087,-12.336451355121568],[-73.98045160842446,-12.242588355034144],[-73.92383685837173,-12.224749230017514],[-73.84324998329662,-12.239429980031197],[-73.80189398325805,-12.22029710501337],[-73.73694073319751,-12.266786980056674],[-73.70781423317035,-12.267907230057714],[-73.63715048310446,-12.378367980160583],[-73.59046535806092,-12.376944230159253],[-73.57432635804585,-12.276842355066027],[-73.46964848294819,-12.219966480013085],[-73.44606060792616,-12.160289104957476],[-73.36188735784756,-12.135964729934836],[-73.40768910789032,-12.065989729869662],[-73.39788485788118,-12.020943479827729],[-73.43769435791835,-11.989631854798581],[-73.44113498292157,-11.944200104756256],[-73.49053160796767,-11.878170479694747],[-73.57750510804881,-11.836484729655934],[-73.57448123304597,-11.73414547956065],[-73.60826960807752,-11.660160104491741],[-73.55965098303216,-11.592050979428304],[-73.44972760792957,-11.531943104372335],[-73.47971623295757,-11.4713638543159],[-73.41974948290158,-11.383938229234493],[-73.331330607819,-11.311264729166817],[-73.25744573274996,-11.31270885416815],[-73.20330073269935,-11.289990354146976],[-73.13737448263765,-11.293773104150501],[-73.02650885753387,-11.26408460412282],[-72.98966460749936,-11.198796854062017],[-72.96858360747962,-11.264121229122859],[-72.939126107452,-11.282077854139564],[-72.95190860746398,-11.330629604184779],[-72.89701898241249,-11.357926104210184],[-72.7942939823161,-11.38429072923471],[-72.73823760726343,-11.347429354200365],[-72.70656135723364,-11.381505354232067],[-72.63212423216363,-11.406400854255223],[-72.6099874821428,-11.428238354275534],[-72.53508560707222,-11.435080479281861],[-72.47986810702017,-11.387420604237432],[-72.42512710696852,-11.368487354219724],[-72.37883010692482,-11.332638729186295],[-72.30770898185762,-11.30699997916233],[-72.23925835679285,-11.345060979197648],[-72.24789448180097,-11.385005854234858],[-72.29255073184324,-11.433273104279875],[-72.31550810686487,-11.595576854431048],[-72.35094460689835,-11.621804854455542],[-72.42873873197183,-11.708971854536797],[-72.42506448196835,-11.733169229559326],[-72.37076798191703,-11.784967354607481],[-72.39130173193642,-11.826346229646072],[-72.33215410688047,-11.855527479673144],[-72.34751423189499,-11.891267479706455],[-72.33746598188544,-11.968075229777968],[-72.28455073183537,-11.97643035478566],[-72.25930310681142,-12.006302729813424],[-72.26893285682053,-12.054375354858204],[-72.17373298173024,-12.059810354863076],[-72.09444660665494,-12.085190979886534],[-72.08755860664833,-12.142690354940031],[-72.10551185666529,-12.238059855028887],[-72.0338407315971,-12.265044855053835],[-71.97303123153908,-12.320543355105288],[-71.97601323154183,-12.398782855178156],[-72.06148935662321,-12.44044935521723],[-72.07113235663235,-12.511484230283388],[-72.12451123168309,-12.54849698031801],[-72.13537723169335,-12.616971355381791],[-72.18576760674124,-12.657139730419305],[-72.22658373178001,-12.664842105426573],[-72.31641673186522,-12.648935105411942],[-72.36288673190921,-12.718562480476843],[-72.36225623190856,-12.824412605575409],[-72.31194410686082,-12.923645605667732],[-72.22619273177946,-12.953121605695014],[-72.21589160676963,-12.991326730730547],[-72.1693167317253,-13.02424335576108],[-72.19063460674556,-13.096150355828097],[-72.23167448178454,-13.126289480856267],[-72.28129935683167,-13.10770373083907],[-72.32798373187593,-13.164332105891864],[-72.38955473193427,-13.174134730901116],[-72.43639360697858,-13.151616605880202],[-72.49028523202956,-13.09972623083197],[-72.54205573207844,-13.082345980815825],[-72.5997714821329,-13.107242230839049],[-72.5544238570901,-13.230080105953403],[-72.54668160708277,-13.332609356048883],[-72.61639910714852,-13.382089731095013],[-72.72208198224808,-13.404720731116186],[-72.77286310729582,-13.44888060615733],[-72.79341323231516,-13.426124481136167],[-72.88630810740239,-13.415865356126659],[-72.8940861074097,-13.390126606102687],[-72.97146198248227,-13.390228481102813],[-73.0151257325232,-13.42666885613675],[-73.10338123260587,-13.448589231157188],[-73.160164357659,-13.443338231152328],[-73.21192923270742,-13.419101856129755],[-73.28735385777792,-13.371942981085844],[-73.34836285783493,-13.298240606017213],[-73.42190960790361,-13.132394605862771],[-73.44883935792875,-13.107873605839952],[-73.47796685795595,-13.032258730769522],[-73.52166198299673,-12.990687730730805],[-73.52367648299861,-12.899478105645887],[-73.59080935806122,-12.844288605594501],[-73.62566723309376,-12.76499248052065],[-73.72536698318672,-12.640693855404892],[-73.7482899832081,-12.657660230420674],[-73.80117298325739,-12.613024230379144],[-73.83077773328498,-12.53050810530227]]]}},{"type":"Feature","properties":{"ubigeo_provincia":"0505","provincia":"LA MAR","departamento":"AYACUCHO","territorios":["AMUVRAEM"]},"geometry":{"type":"Polygon","coordinates":[[[-73.83802935829173,-13.384433606097497],[-73.86984960832142,-13.349537106065023],[-73.9255407333733,-13.324075606041301],[-73.9459402333923,-13.229095855952847],[-73.970305358415,-13.173409105900992],[-74.05812835849683,-13.062704105797895],[-74.07742685851481,-12.984748105725302],[-74.10399448353955,-12.982063230722805],[-74.14423648357706,-12.877754105625659],[-73.99568373343867,-12.83829385558892],[-73.98808785843156,-12.74986910550655],[-73.8881074833384,-12.711048855470413],[-73.85380273330645,-12.645472605409354],[-73.83077773328498,-12.53050810530227],[-73.80117298325739,-12.613024230379144],[-73.7482899832081,-12.657660230420674],[-73.72536698318672,-12.640693855404892],[-73.62566723309376,-12.76499248052065],[-73.59080935806122,-12.844288605594501],[-73.52367648299861,-12.899478105645887],[-73.52166198299673,-12.990687730730805],[-73.47796685795595,-13.032258730769522],[-73.44883935792875,-13.107873605839952],[-73.42190960790361,-13.132394605862771],[-73.34836285783493,-13.298240606017213],[-73.28735385777792,-13.371942981085844],[-73.21192923270742,-13.419101856129755],[-73.23390323272797,-13.476586981183294],[-73.34716335783382,-13.434832231144412],[-73.40332335788626,-13.444750606153669],[-73.44538985792552,-13.430359981140288],[-73.4809101079587,-13.431371106141212],[-73.57175973304346,-13.34183398105783],[-73.64194923310896,-13.299478481018385],[-73.72622260818753,-13.268662105989717],[-73.75643960821569,-13.170714855898474],[-73.79702935825354,-13.199943355925692],[-73.82282023327755,-13.285052106004972],[-73.83802935829173,-13.384433606097497]]]}},{"type":"Feature","properties":{"ubigeo_provincia":"1206","provincia":"SATIPO","departamento":"JUNIN","territorios":["NORVRAEM"]},"geometry":{"type":"Polygon","coordinates":[[[-74.97293748434889,-11.438175979285017],[-75.02840423440053,-11.350232479203106],[-75.04735135941817,-11.301642354157856],[-74.96823998434449,-11.300299854156622],[-74.89121998427278,-11.27062997912897],[-74.91104998429124,-11.213079979075378],[-74.87693998425947,-11.155669979021908],[-74.74593998413746,-11.067429978939735],[-74.72964085912228,-11.017230353893014],[-74.64742098404571,-11.009049603885373],[-74.62261798402263,-10.975863228854484],[-74.6974399840923,-10.955359978835384],[-74.70017385909485,-10.877892728763243],[-74.64929823404745,-10.86707072875316],[-74.61410248401468,-10.904625478788121],[-74.5729951089764,-10.91260197879554],[-74.50838373391623,-10.950299728830647],[-74.50008098390849,-10.995998478873222],[-74.44541048385757,-11.004852478881471],[-74.37365473379074,-11.056522353929575],[-74.25643598368156,-11.018222728893917],[-74.20147460863036,-11.019663728895253],[-74.09177835852817,-10.986814603864666],[-74.0054982334478,-10.993192603870618],[-73.97873848342287,-11.070033103942157],[-73.97827173342243,-11.120626978989277],[-73.91648723336485,-11.14310197901021],[-73.86130360831343,-11.14553022901247],[-73.86657348331835,-11.037352853911724],[-73.85411035830674,-10.954905978834947],[-73.8234072332781,-10.921072728803427],[-73.81421685826955,-10.79989647869059],[-73.75720010821641,-10.73590472863101],[-73.6961931081595,-10.773029228665553],[-73.6103962330795,-10.846573853734071],[-73.56026148303272,-10.860609228747126],[-73.5714909830432,-10.958093728837918],[-73.54257873301621,-11.047424478921112],[-73.48260348296024,-11.065242228937686],[-73.45009860792992,-11.224749479086228],[-73.46011023293927,-11.302711354158843],[-73.48408748296166,-11.31934397917434],[-73.41974948290158,-11.383938229234493],[-73.47971623295757,-11.4713638543159],[-73.44972760792957,-11.531943104372335],[-73.55965098303216,-11.592050979428304],[-73.60826960807752,-11.660160104491741],[-73.57448123304597,-11.73414547956065],[-73.57750510804881,-11.836484729655934],[-73.49053160796767,-11.878170479694747],[-73.44113498292157,-11.944200104756256],[-73.43769435791835,-11.989631854798581],[-73.39788485788118,-12.020943479827729],[-73.40768910789032,-12.065989729869662],[-73.36188735784756,-12.135964729934836],[-73.44606060792616,-12.160289104957476],[-73.46964848294819,-12.219966480013085],[-73.57432635804585,-12.276842355066027],[-73.59046535806092,-12.376944230159253],[-73.63715048310446,-12.378367980160583],[-73.70781423317035,-12.267907230057714],[-73.73694073319751,-12.266786980056674],[-73.80189398325805,-12.22029710501337],[-73.84324998329662,-12.239429980031197],[-73.92383685837173,-12.224749230017514],[-73.98045160842446,-12.242588355034144],[-74.09835723353432,-12.284913605073564],[-74.12143948355585,-12.333601480118912],[-74.18761823361747,-12.314375980101003],[-74.27051573369468,-12.239144730030949],[-74.32187298374251,-12.229777105022206],[-74.34594560876494,-12.173736729970017],[-74.35238410877093,-12.147764979945846],[-74.41952023383345,-12.093775854895554],[-74.45553598386702,-12.0335787298395],[-74.4883772338976,-12.03319597983913],[-74.54899948395406,-11.99699035480542],[-74.50764848391556,-11.987081979796201],[-74.48669535889603,-11.942206979754411],[-74.53600785894197,-11.878362979694948],[-74.57788860898096,-11.882384729698707],[-74.59669985899848,-11.818498104639215],[-74.64848935904669,-11.7378596045641],[-74.64254073404116,-11.700954104529727],[-74.72101460911423,-11.664661104495925],[-74.72514173411811,-11.61399847944875],[-74.82024623420666,-11.588361979424883],[-74.91707885929686,-11.528412354369053],[-74.94148173431958,-11.56487347940299],[-74.97496173435076,-11.550761729389851],[-74.95414285933138,-11.503947354346256],[-74.91598310929585,-11.48821822933161],[-74.97293748434889,-11.438175979285017]]]}},{"type":"Feature","properties":{"ubigeo_provincia":"0907","provincia":"TAYACAJA","departamento":"HUANCAVELICA","territorios":["VRAEM"]},"geometry":{"type":"Polygon","coordinates":[[[-74.54899948395406,-11.99699035480542],[-74.4883772338976,-12.03319597983913],[-74.45553598386702,-12.0335787298395],[-74.41952023383345,-12.093775854895554],[-74.35238410877093,-12.147764979945846],[-74.34594560876494,-12.173736729970017],[-74.3888599838049,-12.192669979987649],[-74.38480998380112,-12.268629980058392],[-74.41628985883047,-12.304769980092068],[-74.44396923385624,-12.271973605061499],[-74.55211723395696,-12.287339855075825],[-74.58117698398404,-12.332669355118043],[-74.5759899839792,-12.373169980155753],[-74.59729498399905,-12.410015605190056],[-74.59733235899907,-12.466094605242283],[-74.69205473408726,-12.521859355294218],[-74.72193160911512,-12.487480355262218],[-74.77968948416891,-12.463849605240197],[-74.86297460924648,-12.522789105295077],[-74.94385348432178,-12.533050730304655],[-75.00706248438065,-12.493226605267568],[-75.02426760939667,-12.434714855213077],[-75.0666953594362,-12.393955105175108],[-75.13100998449609,-12.37849985516073],[-75.14022998450466,-12.342099980126822],[-75.07162785944078,-12.235202605027279],[-75.04832723441909,-12.170329729966861],[-75.07460660944356,-12.060146729864249],[-75.04705260941792,-12.01156360481898],[-74.93037423430924,-12.022858354829514],[-74.87077410925373,-12.06599197986967],[-74.83737360922264,-12.070818479874177],[-74.74860998413995,-12.041419979846799],[-74.71690010911043,-12.059419979863554],[-74.6591077340566,-11.995782479804308],[-74.54899948395406,-11.99699035480542]]]}}]}